{"type":"FeatureCollection","features":[{"type":"Feature","properties":{},"geometry":{"type":"Polygon","coordinates":[[[7.110671,45.47063],[7.114872,45.477479],[7.122121,45.508395],[7.137492,45.516439],[7.138437,45.511361],[7.143583,45.509374],[7.14285,45.505351],[7.138201,45.47493],[7.160495,45.486853],[7.197094,45.480363],[7.208925,45.471833],[7.223827,45.470527],[7.239195,45.489465],[7.265286,45.49992],[7.268217,45.513862],[7.287625,45.510952],[7.300718,45.517589],[7.319431,45.513586],[7.360671,45.525466],[7.376035,45.516357],[7.388543,45.52312],[7.396225,45.527881],[7.396914,45.531952],[7.414642,45.536505],[7.41761,45.546572],[7.424874,45.5459],[7.447723,45.555625],[7.464274,45.577463],[7.480722,45.57898],[7.488413,45.582485],[7.498583,45.582677],[7.526892,45.575175],[7.545856,45.586524],[7.567844,45.590563],[7.583366,45.580835],[7.596834,45.578526],[7.606247,45.571569],[7.608377,45.562365],[7.637243,45.570484],[7.675995,45.551604],[7.686776,45.557035],[7.704557,45.555313],[7.720442,45.558688],[7.731583,45.550015],[7.752768,45.5622],[7.767522,45.567099],[7.795491,45.582596],[7.794545,45.586567],[7.805705,45.587097],[7.82916,45.597024],[7.841644,45.597156],[7.848075,45.601391],[7.862333,45.597147],[7.87841,45.600059],[7.890894,45.596882],[7.8952,45.590467],[7.900707,45.592669],[7.894807,45.608495],[7.912366,45.62771],[7.914603,45.632515],[7.92371,45.635196],[7.935719,45.636283],[7.940071,45.643643],[7.905453,45.683644],[7.91222,45.700553],[7.919822,45.700818],[7.937657,45.725335],[7.926664,45.735319],[7.930085,45.741952],[7.899676,45.75044],[7.86302,45.792606],[7.867366,45.802138],[7.864325,45.811147],[7.86479,45.820028],[7.873641,45.827156],[7.86538,45.837983],[7.867746,45.850043],[7.874208,45.852955],[7.875412,45.861684],[7.870027,45.868573],[7.869267,45.876778],[7.866226,45.880218],[7.865808,45.888936],[7.863426,45.899334],[7.867986,45.905577],[7.862149,45.909131],[7.862246,45.919041],[7.82094,45.926977],[7.798845,45.917639],[7.769144,45.937203],[7.746328,45.941307],[7.734526,45.925164],[7.718537,45.923941],[7.706342,45.936254],[7.708309,45.950068],[7.678411,45.957452],[7.66843,45.975328],[7.657513,45.976754],[7.636796,45.970416],[7.619406,45.972275],[7.601651,45.969908],[7.586328,45.970754],[7.582071,45.979712],[7.576574,45.988176],[7.543333,45.984076],[7.543333,45.957965],[7.529305,45.957179],[7.517669,45.962253],[7.507384,45.958458],[7.499182,45.962944],[7.493756,45.955859],[7.480879,45.953302],[7.470268,45.947218],[7.474792,45.934497],[7.44356,45.931532],[7.408745,45.90827],[7.400878,45.911692],[7.385536,45.896773],[7.344454,45.915103],[7.320261,45.911408],[7.290167,45.921398],[7.255352,45.888686],[7.251222,45.893341],[7.218177,45.88896],[7.196738,45.868009],[7.200868,45.86253],[7.189067,45.857736],[7.158776,45.872528],[7.165267,45.879102],[7.145598,45.878965],[7.105866,45.857188],[7.091072,45.873291],[7.094853,45.877825],[7.075109,45.892007],[7.076369,45.895808],[7.062086,45.900632],[7.061876,45.912119],[7.041502,45.923224],[7.019237,45.915626],[7.003694,45.899842],[7.005375,45.88727],[6.998233,45.878935],[6.99051,45.868331],[6.951862,45.861749],[6.94157,45.848583],[6.920565,45.848144],[6.913634,45.841706],[6.906072,45.845071],[6.902082,45.841998],[6.879397,45.850192],[6.863644,45.832926],[6.840959,45.841413],[6.816804,45.836145],[6.805462,45.816825],[6.809873,45.812726],[6.813024,45.80687],[6.811763,45.796034],[6.804832,45.792959],[6.805672,45.750764],[6.817434,45.740504],[6.806302,45.726576],[6.831507,45.702671],[6.842009,45.70047],[6.84747,45.687853],[6.89368,45.675233],[6.902922,45.681837],[6.909013,45.672004],[6.903342,45.664078],[6.916575,45.660555],[6.917205,45.65248],[6.932958,45.645726],[6.970555,45.654829],[6.972236,45.645873],[6.999961,45.638824],[6.996391,45.629571],[6.986519,45.625165],[6.978902,45.583863],[6.996335,45.575336],[6.990874,45.554455],[6.995495,45.543667],[6.989194,45.530131],[7.004317,45.518947],[6.997806,45.50467],[7.014815,45.498575],[7.028472,45.496573],[7.054307,45.49672],[7.060608,45.487738],[7.048216,45.486413],[7.043939,45.479191],[7.04814,45.470796],[7.059692,45.472269],[7.075446,45.473005],[7.104641,45.467555],[7.110671,45.47063]]]}}]}