{"type":"FeatureCollection","features":[{"type":"Feature","properties":{"@circle":{"type":"Mercator","center":[27.6289941,57.8134396]}},"geometry":{"type":"Polygon","coordinates":[[[27.628994,57.81344],[27.628994,57.81344],[27.628994,57.81344],[27.628994,57.81344]]]}},{"type":"Feature","properties":{},"geometry":{"type":"Polygon","coordinates":[[[-1.428294,41.916211],[-1.41203,41.917591],[-1.401934,41.935536],[-1.379497,41.943464],[-1.389593,41.957648],[-1.377253,41.960567],[-1.346031,42.012959],[-1.307328,42.042126],[-1.303962,42.049207],[-1.310693,42.072944],[-1.347153,42.071695],[-1.365536,42.105682],[-1.400219,42.124139],[-1.394564,42.152931],[-1.391171,42.179197],[-1.399842,42.191208],[-1.413036,42.214945],[-1.389663,42.276618],[-1.396072,42.293073],[-1.353096,42.336281],[-1.334247,42.349934],[-1.3301,42.359128],[-1.334247,42.372219],[-1.348195,42.369712],[-1.359128,42.378624],[-1.341787,42.425391],[-1.320676,42.444311],[-1.284109,42.458775],[-1.273176,42.482967],[-1.275815,42.494642],[-1.29391,42.511318],[-1.265544,42.555277],[-1.228223,42.540836],[-1.226338,42.544446],[-1.200326,42.551389],[-1.199949,42.577766],[-1.175069,42.59442],[-1.166021,42.594975],[-1.15735,42.598027],[-1.179969,42.605797],[-1.180346,42.614675],[-1.155089,42.611069],[-1.153581,42.646295],[-1.085347,42.645185],[-1.056697,42.639639],[-1.034455,42.648513],[-1.04011,42.689814],[-1.02503,42.698403],[-0.947342,42.711722],[-0.922408,42.744834],[-0.902051,42.741511],[-0.90092,42.759228],[-0.870384,42.760889],[-0.84852,42.784687],[-0.862468,42.801285],[-0.853797,42.808476],[-0.856813,42.845801],[-0.841993,42.855568],[-0.818243,42.873252],[-0.823521,42.899493],[-0.798263,42.911366],[-0.785446,42.921029],[-0.743601,42.919097],[-0.723998,42.920477],[-0.730407,42.924894],[-0.728899,42.939798],[-0.733422,42.949733],[-0.737192,42.945042],[-0.754533,42.967942],[-0.791477,42.96408],[-0.795247,42.980905],[-0.783183,42.991936],[-0.789785,43.015796],[-0.76624,43.052043],[-0.748108,43.10804],[-0.743654,43.189691],[-0.748004,43.235663],[-0.76323,43.265763],[-0.789087,43.291148],[-0.823588,43.312238],[-0.860848,43.313242],[-0.895905,43.315166],[-0.951302,43.328325],[-0.984167,43.337781],[-1.021808,43.454371],[-1.039297,43.463174],[-1.063486,43.465944],[-1.104982,43.473706],[-1.112529,43.495759],[-1.132629,43.50319],[-1.129676,43.518989],[-1.153762,43.529373],[-1.157016,43.532188],[-1.15985,43.535841],[-1.15922,43.537971],[-1.166585,43.544382],[-1.181403,43.547167],[-1.195261,43.546371],[-1.215345,43.532215],[-1.23922,43.520186],[-1.265643,43.510669],[-1.28985,43.499568],[-1.31009,43.503157],[-1.340351,43.502042],[-1.364849,43.495315],[-1.417871,43.498095],[-1.417176,43.502879],[-1.4222,43.504755],[-1.423607,43.504856],[-1.427752,43.511137],[-1.432595,43.510022],[-1.443854,43.511958],[-1.456227,43.511149],[-1.467981,43.508961],[-1.468614,43.511426],[-1.464029,43.519221],[-1.464345,43.527487],[-1.460946,43.531498],[-1.46088,43.535256],[-1.47893,43.535585],[-1.494618,43.524953],[-1.523335,43.529093],[-2.078043,43.598814],[-3.148785,43.598814],[-3.156534,43.354385],[-3.154226,43.301791],[-3.219604,43.285556],[-3.334975,43.300672],[-3.44727,43.236266],[-3.41189,43.134197],[-3.280832,43.201981],[-3.137591,43.179602],[-3.181927,43.112416],[-3.123948,43.122374],[-3.175106,43.025214],[-2.973886,42.940385],[-3.062559,42.902923],[-3.168285,42.952867],[-3.226264,42.952867],[-3.294474,42.89043],[-3.236495,42.832933],[-3.195569,42.870437],[-3.103485,42.885433],[-3.154643,42.822928],[-3.100075,42.772878],[-2.857929,42.645068],[-2.813592,42.552179],[-2.772666,42.640051],[-2.687403,42.607427],[-2.697635,42.519509],[-2.476178,42.488943],[-2.449327,42.498757],[-2.39667,42.476458],[-2.34925,42.472776],[-2.309317,42.467253],[-2.2594,42.450682],[-2.231946,42.419367],[-2.194509,42.423052],[-2.159568,42.408311],[-2.109651,42.413839],[-2.089685,42.347469],[-2.079702,42.34009],[-2.017306,42.367757],[-1.865061,42.288415],[-1.870053,42.253325],[-1.850087,42.257019],[-1.827624,42.24963],[-1.820137,42.229305],[-1.790187,42.225608],[-1.720304,42.207124],[-1.672884,42.190484],[-1.702833,42.173839],[-1.675379,42.149788],[-1.715312,42.131282],[-1.750254,42.153489],[-1.780204,42.140536],[-1.820137,42.155339],[-1.832616,42.136834],[-1.904995,42.064614],[-1.902499,42.031253],[-1.837607,41.992311],[-1.812649,42.003439],[-1.792683,41.98489],[-1.757741,41.99973],[-1.730287,41.958912],[-1.695346,41.951488],[-1.670388,41.968191],[-1.610488,41.9552],[-1.590522,41.927353],[-1.515647,41.912497],[-1.493185,41.927353],[-1.428294,41.916211]]]}}]}