{"type":"FeatureCollection","features":[{"type":"Feature","properties":{"@circle":{"type":"Mercator","center":[-24.1745357,16.1337096]}},"geometry":{"type":"Polygon","coordinates":[[[-22.640593,16.13371],[-22.64362,16.226212],[-22.652688,16.318305],[-22.667763,16.409628],[-22.688784,16.49982],[-22.715669,16.588528],[-22.748312,16.675402],[-22.786583,16.760103],[-22.830331,16.842299],[-22.879385,16.92167],[-22.93355,16.997905],[-22.992612,17.070707],[-23.056339,17.139794],[-23.12448,17.204897],[-23.196764,17.265762],[-23.272907,17.322155],[-23.352608,17.373856],[-23.435553,17.420665],[-23.521415,17.462402],[-23.609854,17.498906],[-23.700521,17.530035],[-23.79306,17.55567],[-23.887103,17.575711],[-23.982282,17.590081],[-24.078219,17.598726],[-24.174536,17.601611],[-24.270853,17.598726],[-24.36679,17.590081],[-24.461968,17.575711],[-24.556012,17.55567],[-24.64855,17.530035],[-24.739218,17.498906],[-24.827657,17.462402],[-24.913518,17.420665],[-24.996463,17.373856],[-25.076165,17.322155],[-25.152308,17.265762],[-25.224592,17.204897],[-25.292732,17.139794],[-25.356459,17.070707],[-25.415522,16.997905],[-25.469686,16.92167],[-25.51874,16.842299],[-25.562489,16.760103],[-25.60076,16.675402],[-25.633402,16.588528],[-25.660287,16.49982],[-25.681308,16.409628],[-25.696383,16.318305],[-25.705452,16.226212],[-25.708479,16.13371],[-25.705452,16.041164],[-25.696383,15.948942],[-25.681308,15.857406],[-25.660287,15.766921],[-25.633402,15.677845],[-25.60076,15.590532],[-25.562489,15.505329],[-25.51874,15.422576],[-25.469686,15.342602],[-25.415522,15.265727],[-25.356459,15.192258],[-25.292732,15.122489],[-25.224592,15.056698],[-25.152308,14.99515],[-25.076165,14.938091],[-24.996463,14.88575],[-24.913518,14.838338],[-24.827657,14.796044],[-24.739218,14.759039],[-24.64855,14.727471],[-24.556012,14.701468],[-24.461968,14.681134],[-24.36679,14.666551],[-24.270853,14.657777],[-24.174536,14.654849],[-24.078219,14.657777],[-23.982282,14.666551],[-23.887103,14.681134],[-23.79306,14.701468],[-23.700521,14.727471],[-23.609854,14.759039],[-23.521415,14.796044],[-23.435553,14.838338],[-23.352608,14.88575],[-23.272907,14.938091],[-23.196764,14.99515],[-23.12448,15.056698],[-23.056339,15.122489],[-22.992612,15.192258],[-22.93355,15.265727],[-22.879385,15.342602],[-22.830331,15.422576],[-22.786583,15.505329],[-22.748312,15.590532],[-22.715669,15.677845],[-22.688784,15.766921],[-22.667763,15.857406],[-22.652688,15.948942],[-22.640593,16.13371]]]}}]}
