{
  "type": "FeatureCollection",
  "features": [
    {
      "type": "Feature",
      "geometry": {
        "type": "Polygon",
        "coordinates": [
          [
            [
              -6.0983745,
              50.347242
            ],
            [
              -6.1927562,
              50.2346834
            ],
            [
              -6.129835,
              50.0087669
            ],
            [
              -6.0485808,
              49.6646696
            ],
            [
              -4.9598953,
              49.7074623
            ],
            [
              -4.0223728,
              49.7115312
            ],
            [
              -4.1514281,
              50.3045473
            ],
            [
              -4.1644692,
              50.3554985
            ],
            [
              -4.175348,
              50.3631265
            ],
            [
              -4.1934752,
              50.3658703
            ],
            [
              -4.1890202,
              50.3760604
            ],
            [
              -4.1988281,
              50.3928218
            ],
            [
              -4.2095815,
              50.3974245
            ],
            [
              -4.2008252,
              50.4158311
            ],
            [
              -4.1963515,
              50.4391584
            ],
            [
              -4.2115599,
              50.4609718
            ],
            [
              -4.2190873,
              50.4668391
            ],
            [
              -4.2269219,
              50.4614607
            ],
            [
              -4.2278436,
              50.4566686
            ],
            [
              -4.2346029,
              50.456473
            ],
            [
              -4.2379825,
              50.4599938
            ],
            [
              -4.238597,
              50.4648834
            ],
            [
              -4.2342957,
              50.4687947
            ],
            [
              -4.2187468,
              50.4750945
            ],
            [
              -4.2181323,
              50.4835993
            ],
            [
              -4.2228945,
              50.4875091
            ],
            [
              -4.2238612,
              50.4903879
            ],
            [
              -4.2201497,
              50.493733
            ],
            [
              -4.2212323,
              50.4979959
            ],
            [
              -4.2195827,
              50.4982582
            ],
            [
              -4.2069533,
              50.495471
            ],
            [
              -4.2034995,
              50.4921917
            ],
            [
              -4.1987055,
              50.4922245
            ],
            [
              -4.194427,
              50.4940281
            ],
            [
              -4.1944785,
              50.4988485
            ],
            [
              -4.1816449,
              50.5001524
            ],
            [
              -4.1802531,
              50.5029722
            ],
            [
              -4.1864905,
              50.5084801
            ],
            [
              -4.1922124,
              50.5060868
            ],
            [
              -4.1956661,
              50.5024148
            ],
            [
              -4.2026767,
              50.5029722
            ],
            [
              -4.2021352,
              50.5135229
            ],
            [
              -4.209919,
              50.513359
            ],
            [
              -4.2059498,
              50.5215204
            ],
            [
              -4.2120082,
              50.5293651
            ],
            [
              -4.2054099,
              50.5332316
            ],
            [
              -4.2148949,
              50.5347061
            ],
            [
              -4.225617,
              50.5296928
            ],
            [
              -4.2359783,
              50.5327401
            ],
            [
              -4.241374,
              50.5426028
            ],
            [
              -4.2475598,
              50.5440115
            ],
            [
              -4.2537456,
              50.5435528
            ],
            [
              -4.2635771,
              50.5359743
            ],
            [
              -4.2688866,
              50.5355156
            ],
            [
              -4.2719279,
              50.5373831
            ],
            [
              -4.2650204,
              50.5437715
            ],
            [
              -4.2601233,
              50.5441974
            ],
            [
              -4.2597625,
              50.5468835
            ],
            [
              -4.2598635,
              50.5523087
            ],
            [
              -4.2664102,
              50.5595137
            ],
            [
              -4.2736786,
              50.5625919
            ],
            [
              -4.2736717,
              50.5659318
            ],
            [
              -4.279239,
              50.5688131
            ],
            [
              -4.2777043,
              50.5751512
            ],
            [
              -4.2701828,
              50.5787335
            ],
            [
              -4.2707044,
              50.5823614
            ],
            [
              -4.277506,
              50.5838609
            ],
            [
              -4.2854829,
              50.5846888
            ],
            [
              -4.2821081,
              50.576263
            ],
            [
              -4.2876305,
              50.5750452
            ],
            [
              -4.2924626,
              50.584494
            ],
            [
              -4.3064616,
              50.5782509
            ],
            [
              -4.3075354,
              50.581368
            ],
            [
              -4.3118251,
              50.5855285
            ],
            [
              -4.3112937,
              50.5910103
            ],
            [
              -4.3056891,
              50.5955108
            ],
            [
              -4.307169,
              50.5990092
            ],
            [
              -4.3060174,
              50.6070682
            ],
            [
              -4.3028346,
              50.6120452
            ],
            [
              -4.307605,
              50.6198788
            ],
            [
              -4.3011591,
              50.6261219
            ],
            [
              -4.3026119,
              50.629706
            ],
            [
              -4.3001905,
              50.6334946
            ],
            [
              -4.3039983,
              50.6362696
            ],
            [
              -4.3086797,
              50.6357577
            ],
            [
              -4.3115854,
              50.6373959
            ],
            [
              -4.3143297,
              50.635553
            ],
            [
              -4.3173968,
              50.6359625
            ],
            [
              -4.325633,
              50.6378273
            ],
            [
              -4.3253297,
              50.6404654
            ],
            [
              -4.3330333,
              50.6414116
            ],
            [
              -4.3360367,
              50.6515234
            ],
            [
              -4.3358317,
              50.6553588
            ],
            [
              -4.3394069,
              50.6580786
            ],
            [
              -4.3386919,
              50.6613271
            ],
            [
              -4.3421969,
              50.6610381
            ],
            [
              -4.3458653,
              50.6687711
            ],
            [
              -4.3437202,
              50.6707349
            ],
            [
              -4.3471762,
              50.6726986
            ],
            [
              -4.3447751,
              50.6792213
            ],
            [
              -4.3478677,
              50.6826914
            ],
            [
              -4.3490595,
              50.6860892
            ],
            [
              -4.3483444,
              50.6882787
            ],
            [
              -4.350132,
              50.6909212
            ],
            [
              -4.3531172,
              50.6918306
            ],
            [
              -4.3538263,
              50.6940164
            ],
            [
              -4.3595466,
              50.6962056
            ],
            [
              -4.3643135,
              50.6977153
            ],
            [
              -4.3667896,
              50.702183
            ],
            [
              -4.3688841,
              50.702262
            ],
            [
              -4.3672376,
              50.7035072
            ],
            [
              -4.367387,
              50.7073851
            ],
            [
              -4.3688841,
              50.7092269
            ],
            [
              -4.3657057,
              50.7116106
            ],
            [
              -4.365305,
              50.7135562
            ],
            [
              -4.3635039,
              50.7145726
            ],
            [
              -4.3619786,
              50.7185593
            ],
            [
              -4.3641052,
              50.7211364
            ],
            [
              -4.3691409,
              50.7235783
            ],
            [
              -4.3705694,
              50.727683
            ],
            [
              -4.374469,
              50.73858
            ],
            [
              -4.3844744,
              50.7474761
            ],
            [
              -4.3851114,
              50.7483779
            ],
            [
              -4.384346,
              50.748629
            ],
            [
              -4.3853666,
              50.7502792
            ],
            [
              -4.3842609,
              50.7496335
            ],
            [
              -4.3835878,
              50.751002
            ],
            [
              -4.3839058,
              50.7517513
            ],
            [
              -4.3840064,
              50.7530449
            ],
            [
              -4.383403,
              50.7530025
            ],
            [
              -4.3821563,
              50.7536099
            ],
            [
              -4.3824309,
              50.7542325
            ],
            [
              -4.3814588,
              50.754699
            ],
            [
              -4.3820287,
              50.7551231
            ],
            [
              -4.3809896,
              50.7553352
            ],
            [
              -4.381794,
              50.7558865
            ],
            [
              -4.3810231,
              50.7562258
            ],
            [
              -4.380822,
              50.7565651
            ],
            [
              -4.3813918,
              50.7566499
            ],
            [
              -4.3811907,
              50.7569468
            ],
            [
              -4.3814924,
              50.7572437
            ],
            [
              -4.3822356,
              50.7574702
            ],
            [
              -4.3856153,
              50.7582191
            ],
            [
              -4.3876563,
              50.7576815
            ],
            [
              -4.3863381,
              50.7638355
            ],
            [
              -4.3878365,
              50.7644894
            ],
            [
              -4.3845082,
              50.7660933
            ],
            [
              -4.3822892,
              50.7690505
            ],
            [
              -4.392087,
              50.7808614
            ],
            [
              -4.4122378,
              50.7762556
            ],
            [
              -4.4099753,
              50.7688392
            ],
            [
              -4.4096086,
              50.7664269
            ],
            [
              -4.4094894,
              50.765245
            ],
            [
              -4.4096452,
              50.7638753
            ],
            [
              -4.4084258,
              50.7626005
            ],
            [
              -4.4072414,
              50.7621037
            ],
            [
              -4.4094597,
              50.7626739
            ],
            [
              -4.4109011,
              50.7637851
            ],
            [
              -4.4122959,
              50.7640268
            ],
            [
              -4.413377,
              50.7636564
            ],
            [
              -4.413332,
              50.7643117
            ],
            [
              -4.4142779,
              50.7645396
            ],
            [
              -4.416395,
              50.7643971
            ],
            [
              -4.4170077,
              50.7651334
            ],
            [
              -4.4194401,
              50.7651334
            ],
            [
              -4.4220527,
              50.7641932
            ],
            [
              -4.4228935,
              50.7647269
            ],
            [
              -4.4239296,
              50.7646415
            ],
            [
              -4.4276382,
              50.7675266
            ],
            [
              -4.4380394,
              50.7737173
            ],
            [
              -4.448686,
              50.7827445
            ],
            [
              -4.4533717,
              50.7883395
            ],
            [
              -4.4514359,
              50.7913988
            ],
            [
              -4.4545418,
              50.7946861
            ],
            [
              -4.4458309,
              50.80218
            ],
            [
              -4.4523641,
              50.8061559
            ],
            [
              -4.445589,
              50.8096727
            ],
            [
              -4.445347,
              50.813495
            ],
            [
              -4.4434113,
              50.816094
            ],
            [
              -4.4397046,
              50.8236904
            ],
            [
              -4.4400749,
              50.8255215
            ],
            [
              -4.4438109,
              50.8273525
            ],
            [
              -4.4433352,
              50.8319696
            ],
            [
              -4.4425277,
              50.8383246
            ],
            [
              -4.4397405,
              50.8437203
            ],
            [
              -4.4411113,
              50.8459707
            ],
            [
              -4.4401584,
              50.8509177
            ],
            [
              -4.4179209,
              50.8546423
            ],
            [
              -4.4138499,
              50.8624516
            ],
            [
              -4.4210581,
              50.8664029
            ],
            [
              -4.4269224,
              50.875961
            ],
            [
              -4.4409355,
              50.8884354
            ],
            [
              -4.4465023,
              50.8977587
            ],
            [
              -4.4498479,
              50.9046252
            ],
            [
              -4.4477491,
              50.9132932
            ],
            [
              -4.444082,
              50.9433532
            ],
            [
              -4.6599903,
              50.9458044
            ],
            [
              -5.0479875,
              50.9438251
            ],
            [
              -5.3590022,
              50.9398661
            ],
            [
              -5.4196697,
              50.7453996
            ],
            [
              -6.0983745,
              50.347242
            ]
          ]
        ]
      },
      "properties": {}
    }
  ]
}
