{"type":"FeatureCollection","features":[{"type":"Feature","properties":{},"geometry":{"type":"Polygon","coordinates":[[[6.058252,46.419134],[6.043015,46.40106],[6.01917,46.380031],[5.986336,46.367625],[5.980082,46.358184],[5.940475,46.308588],[5.928965,46.29487],[5.922376,46.28527],[5.922758,46.280597],[5.924518,46.278632],[5.908721,46.268717],[5.896302,46.257642],[5.893109,46.255052],[5.891391,46.251486],[5.891677,46.242374],[5.890961,46.238907],[5.884361,46.236129],[5.866018,46.222229],[5.862319,46.216315],[5.860446,46.210414],[5.851016,46.199289],[5.845962,46.197433],[5.841826,46.197698],[5.840217,46.195949],[5.838379,46.196161],[5.836242,46.195058],[5.835469,46.192821],[5.832635,46.192927],[5.825818,46.189639],[5.821156,46.181199],[5.816764,46.175103],[5.81416,46.167996],[5.81102,46.166458],[5.812882,46.16361],[5.811963,46.161276],[5.809129,46.160799],[5.808976,46.155971],[5.805299,46.153424],[5.803853,46.149638],[5.806804,46.144527],[5.808579,46.140023],[5.809498,46.137847],[5.811767,46.136721],[5.81708,46.133336],[5.822304,46.125223],[5.824316,46.116846],[5.827267,46.112579],[5.833815,46.105681],[5.843131,46.097498],[5.856795,46.08673],[5.863963,46.085097],[5.871701,46.087592],[5.880677,46.084746],[5.889091,46.0863],[5.892197,46.091899],[5.889713,46.102666],[5.884744,46.109126],[5.893828,46.120046],[5.899608,46.120209],[5.905625,46.121436],[5.918365,46.129039],[5.927831,46.128071],[5.936753,46.129102],[5.948203,46.127865],[5.95568,46.132277],[5.962639,46.13598],[5.966289,46.137991],[5.965485,46.139689],[5.965072,46.146031],[5.97516,46.158953],[5.980594,46.166153],[5.981303,46.174334],[5.986602,46.171956],[5.991571,46.181847],[5.96434,46.198417],[5.9735,46.203265],[5.96919,46.206808],[5.97835,46.218181],[5.991821,46.214639],[5.992629,46.2234],[6.000712,46.219858],[6.011759,46.228433],[6.024691,46.233651],[6.03439,46.238496],[6.046245,46.231228],[6.061984,46.246494],[6.069146,46.241664],[6.087197,46.247254],[6.100129,46.238124],[6.108481,46.240546],[6.114948,46.2439],[6.124647,46.251539],[6.10179,46.286052],[6.119458,46.295998],[6.121614,46.300652],[6.119728,46.311261],[6.136162,46.33024],[6.139665,46.337867],[6.158255,46.350328],[6.159602,46.358138],[6.170379,46.366505],[6.159025,46.378853],[6.149056,46.378667],[6.1143,46.399481],[6.114031,46.396693],[6.109451,46.399852],[6.105948,46.399666],[6.098135,46.408398],[6.070115,46.414343],[6.058252,46.419134]]]}}]}