{
  "type": "FeatureCollection",
  "features": [
    {
      "type": "Feature",
      "properties": {
        "@circle": {
          "type": "Mercator",
          "center": [
            7.8918888,
            54.183736
          ]
        }
      },
      "geometry": {
        "type": "Polygon",
        "coordinates": [
          [
            [
              8.275865697646083,
              54.183735999999996
            ],
            [
              8.275108006949758,
              54.19784253647405
            ],
            [
              8.272837925119802,
              54.211888615793846
            ],
            [
              8.269064411132103,
              54.22581889019527
            ],
            [
              8.263802357322408,
              54.23957852402632
            ],
            [
              8.257072530613105,
              54.253113407924374
            ],
            [
              8.248901490555648,
              54.266370369295196
            ],
            [
              8.239321484512152,
              54.27929737831175
            ],
            [
              8.228370320389782,
              54.291843748680996
            ],
            [
              8.216091217430217,
              54.30396033245867
            ],
            [
              8.20253263564305,
              54.31559970822576
            ],
            [
              8.18774808455627,
              54.32671636197535
            ],
            [
              8.171795912038597,
              54.33726686009486
            ],
            [
              8.154739074027102,
              54.34721001386545
            ],
            [
              8.13664488606889,
              54.35650703493835
            ],
            [
              8.117584757657383,
              54.36512168128575
            ],
            [
              8.097633910411679,
              54.37302039316226
            ],
            [
              8.076871081211179,
              54.38017241865145
            ],
            [
              8.055378211457104,
              54.386549928410325
            ],
            [
              8.033240123687214,
              54.39212811926257
            ],
            [
              8.01054418682001,
              54.396885306329736
            ],
            [
              7.987379971349516,
              54.400803003426724
            ],
            [
              7.963838895851471,
              54.4038659914859
            ],
            [
              7.940013866195973,
              54.40606237481041
            ],
            [
              7.915998908890452,
              54.40738362499454
            ],
            [
              7.8918888,
              54.407824612385156
            ],
            [
              7.867778691109548,
              54.40738362499454
            ],
            [
              7.8437637338040265,
              54.40606237481041
            ],
            [
              7.819938704148528,
              54.4038659914859
            ],
            [
              7.796397628650484,
              54.400803003426724
            ],
            [
              7.773233413179992,
              54.396885306329736
            ],
            [
              7.750537476312786,
              54.39212811926257
            ],
            [
              7.728399388542897,
              54.386549928410325
            ],
            [
              7.706906518788821,
              54.38017241865145
            ],
            [
              7.68614368958832,
              54.37302039316226
            ],
            [
              7.666192842342616,
              54.36512168128575
            ],
            [
              7.647132713931109,
              54.35650703493835
            ],
            [
              7.6290385259728986,
              54.34721001386545
            ],
            [
              7.611981687961404,
              54.33726686009486
            ],
            [
              7.596029515443729,
              54.32671636197535
            ],
            [
              7.581244964356949,
              54.31559970822576
            ],
            [
              7.567686382569783,
              54.30396033245867
            ],
            [
              7.555407279610219,
              54.291843748680996
            ],
            [
              7.544456115487849,
              54.27929737831175
            ],
            [
              7.534876109444352,
              54.266370369295196
            ],
            [
              7.526705069386895,
              54.253113407924374
            ],
            [
              7.519975242677592,
              54.23957852402632
            ],
            [
              7.5147131888678995,
              54.22581889019527
            ],
            [
              7.510939674880197,
              54.211888615793846
            ],
            [
              7.508669593050243,
              54.19784253647405
            ],
            [
              7.507911902353917,
              54.183735999999996
            ],
            [
              7.508669593050243,
              54.16962464918196
            ],
            [
              7.510939674880197,
              54.15556420275617
            ],
            [
              7.5147131888678995,
              54.141610235067226
            ],
            [
              7.519975242677592,
              54.12781795542859
            ],
            [
              7.526705069386895,
              54.11424198805225
            ],
            [
              7.534876109444352,
              54.10093615344986
            ],
            [
              7.544456115487849,
              54.08795325221551
            ],
            [
              7.555407279610219,
              54.075344852102994
            ],
            [
              7.567686382569783,
              54.063161079309424
            ],
            [
              7.581244964356949,
              54.05145041487075
            ],
            [
              7.596029515443729,
              54.040259497063694
            ],
            [
              7.611981687961404,
              54.029632930692806
            ],
            [
              7.6290385259728986,
              54.019613104120445
            ],
            [
              7.647132713931109,
              54.01024001487127
            ],
            [
              7.666192842342616,
              54.00155110461193
            ],
            [
              7.686143689588322,
              53.99358110427062
            ],
            [
              7.706906518788821,
              53.986361890020575
            ],
            [
              7.728399388542897,
              53.97992235080569
            ],
            [
              7.750537476312786,
              53.9742882680371
            ],
            [
              7.773233413179991,
              53.969482208035096
            ],
            [
              7.796397628650484,
              53.965523427733125
            ],
            [
              7.819938704148528,
              53.9624277940991
            ],
            [
              7.8437637338040265,
              53.960207717664616
            ],
            [
              7.867778691109548,
              53.9588721004857
            ],
            [
              7.8918888,
              53.95842629878894
            ],
            [
              7.915998908890452,
              53.9588721004857
            ],
            [
              7.940013866195973,
              53.960207717664616
            ],
            [
              7.963838895851471,
              53.9624277940991
            ],
            [
              7.987379971349516,
              53.965523427733125
            ],
            [
              8.01054418682001,
              53.969482208035096
            ],
            [
              8.033240123687214,
              53.9742882680371
            ],
            [
              8.055378211457104,
              53.97992235080569
            ],
            [
              8.076871081211179,
              53.986361890020575
            ],
            [
              8.097633910411679,
              53.99358110427062
            ],
            [
              8.117584757657383,
              54.00155110461193
            ],
            [
              8.13664488606889,
              54.01024001487127
            ],
            [
              8.154739074027102,
              54.019613104120445
            ],
            [
              8.171795912038597,
              54.029632930692806
            ],
            [
              8.18774808455627,
              54.040259497063694
            ],
            [
              8.20253263564305,
              54.05145041487075
            ],
            [
              8.216091217430217,
              54.063161079309424
            ],
            [
              8.228370320389782,
              54.075344852102994
            ],
            [
              8.239321484512152,
              54.08795325221551
            ],
            [
              8.248901490555648,
              54.10093615344986
            ],
            [
              8.257072530613105,
              54.11424198805225
            ],
            [
              8.263802357322408,
              54.12781795542859
            ],
            [
              8.269064411132103,
              54.141610235067226
            ],
            [
              8.272837925119802,
              54.15556420275617
            ],
            [
              8.275865697646083,
              54.183735999999996
            ]
          ]
        ]
      }
    }
  ]
}
