{"type":"FeatureCollection","features":[{"type":"Feature","properties":{"name":"Hokkaidō","name_ja":"北海道","source":"Natural Earth lowres"},"geometry":{"type":"Polygon","coordinates":[[[144.61342654843963,43.96088288021748],[145.32082523008307,44.38473297787541],[145.5431372418027,43.26208832455062],[144.05966189999987,42.98835826270056],[143.18384972551723,41.9952147486992],[141.6114909201724,42.6787905950561],[141.06728641170668,41.58459381770797],[139.955106235921,41.56955597591103],[139.81754357315998,42.563758856774385],[140.31208703019325,43.33327261003269],[141.38054894426,43.38882477474644],[141.67195234595386,44.77212535255146],[141.96764489152798,45.55148346616134],[143.14287031470974,44.51035838477697],[143.91016198137947,44.17409983985374],[144.61342654843963,43.96088288021748]]]}}]}