{"type":"FeatureCollection","features":[{"type":"Feature","properties":{},"geometry":{"type":"Polygon","coordinates":[[[-159.884101,63.885204],[-159.599766,64.31628],[-159.285124,64.631518],[-159.045128,65.093955],[-158.964362,65.44587],[-158.703059,65.903201],[-158.333992,66.212325],[-157.895423,66.360401],[-157.445989,66.403597],[-156.923561,66.430001],[-156.511956,66.429238],[-155.950946,66.468883],[-155.675419,66.516735],[-155.402624,66.689201],[-155.192033,66.86276],[-154.856998,67.064667],[-154.282547,67.375298],[-153.612788,67.623369],[-152.935845,67.845253],[-151.4244,68.206208],[-149.526707,68.586183],[-147.487959,68.813557],[-145.995521,68.883699],[-145.866003,68.890898],[-144.253788,68.89084],[-141.011067,68.712753],[-140.999893,69.673769],[-140.293205,70.594296],[-153.912187,71.932058],[-169.304516,70.401921],[-168.638596,67.253759],[-169.306675,65.587768],[-168.833271,63.700625],[-164.489884,63.779493],[-162.207711,63.819271],[-161.055913,63.826427],[-159.884101,63.885204]]]}}]}