{"type":"FeatureCollection","features":[{"type":"Feature","properties":{},"geometry":{"type":"Polygon","coordinates":[[[3.358682,36.783724],[3.34929,36.759309],[3.384996,36.76503],[3.384103,36.731414],[3.282342,36.700645],[3.252885,36.721397],[3.260026,36.695635],[3.235794,36.674208],[3.262358,36.631585],[3.283234,36.64584],[3.306856,36.632966],[3.286428,36.611959],[3.286428,36.566208],[3.29909,36.503468],[3.424264,36.400562],[3.483506,36.452292],[3.55948,36.435315],[3.546817,36.406446],[3.595356,36.350376],[3.547256,36.330063],[3.539794,36.299997],[3.519382,36.275553],[3.557369,36.27215],[3.563549,36.21349],[3.491349,36.198381],[3.492229,36.149374],[3.509107,36.120294],[3.437094,36.064831],[3.403339,36.073926],[3.396587,36.047547],[3.43822,36.041179],[3.536112,36.02753],[3.58112,35.960163],[3.608124,35.9137],[3.632879,35.916434],[3.638505,35.945589],[3.714879,35.939939],[3.754254,35.898461],[3.768224,35.907636],[3.80145,35.886226],[3.790878,35.874295],[3.816175,35.856854],[3.831656,35.868175],[3.84577,35.854351],[3.89308,35.873883],[3.907362,35.897749],[3.928786,35.887625],[4.036796,35.861585],[4.016265,35.920884],[4.04131,35.957331],[4.05028,36.00209],[4.069018,36.042798],[4.088019,36.033194],[4.093958,36.003416],[4.133149,36.000534],[4.140275,36.005338],[4.143838,36.02359],[4.230534,36.02455],[4.236472,36.012063],[4.288727,35.990925],[4.360307,35.990225],[4.405437,36.011363],[4.45888,36.040178],[4.493321,36.041138],[4.486195,36.018087],[4.505197,35.981577],[4.498071,35.972927],[4.521824,35.934472],[4.457692,35.914276],[4.460067,35.891188],[4.437503,35.876755],[4.439878,35.861356],[4.41375,35.854619],[4.418501,35.827662],[4.474319,35.815143],[4.550327,35.809365],[4.534887,35.846918],[4.597831,35.880604],[4.607332,35.872906],[4.582392,35.845955],[4.580017,35.818995],[4.610895,35.804549],[4.620396,35.821884],[4.675655,35.837961],[4.711244,35.859596],[4.742383,35.855089],[4.791414,35.868094],[4.820303,35.859202],[4.835742,35.880375],[4.901062,35.813951],[4.934315,35.810099],[4.924814,35.828396],[4.958067,35.815877],[4.958067,35.76771],[4.993696,35.769638],[5.048327,35.787944],[5.024574,35.761928],[5.087518,35.723371],[5.108895,35.721443],[5.148087,35.731084],[5.167089,35.706979],[5.140961,35.688654],[5.18134,35.657781],[5.333804,35.628019],[5.394084,35.612065],[5.429131,35.689526],[5.424925,35.721401],[5.479598,35.764638],[5.52586,35.755537],[5.535673,35.78511],[5.649225,35.748711],[5.663244,35.770325],[5.688478,35.7544],[5.723524,35.776012],[5.713711,35.796482],[5.740347,35.794208],[5.733338,35.827177],[5.685674,35.82263],[5.675861,35.853315],[5.747356,35.913513],[5.811843,35.922595],[5.88474,35.849906],[5.936609,35.82604],[5.928198,35.86922],[6.01932,35.941892],[5.967451,35.989547],[6.006703,36.009961],[5.995488,36.094965],[5.912777,36.121015],[5.920114,36.184789],[5.952357,36.200628],[5.95516,36.218726],[5.920114,36.241342],[5.87245,36.340777],[5.819179,36.358842],[5.817777,36.414141],[5.774319,36.424294],[5.749085,36.462637],[5.763466,36.489377],[5.750933,36.563234],[5.801138,36.564963],[5.859554,36.539742],[5.872087,36.556523],[5.938931,36.556523],[5.973758,36.60598],[6.001391,36.616014],[6.031438,36.607342],[6.048009,36.61517],[6.064186,36.605716],[6.119996,36.603308],[6.139577,36.588671],[6.260615,36.563234],[6.239727,36.596782],[6.298215,36.630316],[6.339992,36.593428],[6.464975,36.576333],[6.4747,36.620085],[6.452309,36.62937],[6.498211,36.636258],[6.512019,36.6656],[6.500077,36.688347],[6.418349,36.697922],[6.39857,36.726941],[6.371595,36.728949],[6.34071,36.854865],[6.273324,36.87059],[6.276132,36.942434],[3.847902,37.06759],[3.358682,36.783724]]]}}]}