{"type":"FeatureCollection","features":[{"type":"Feature","properties":{},"geometry":{"type":"Polygon","coordinates":[[[20.57423,41.920764],[20.62116,41.860336],[20.647552,41.875553],[20.678278,41.870776],[20.68368,41.858204],[20.726562,41.861976],[20.76876,41.919699],[20.753005,41.948162],[20.77101,41.961552],[20.753005,41.984141],[20.758632,42.050189],[20.795767,42.085276],[20.835154,42.089451],[20.839655,42.100307],[20.889169,42.096967],[20.920678,42.130358],[20.952188,42.139538],[20.970504,42.137261],[21.118061,42.207462],[21.161376,42.196531],[21.217542,42.127377],[21.222778,42.095598],[21.320356,42.106899],[21.299888,42.137614],[21.37795,42.238129],[21.397299,42.252084],[21.425534,42.238491],[21.433827,42.232351],[21.444095,42.235274],[21.430273,42.259684],[21.476082,42.280431],[21.521298,42.261291],[21.521092,42.241342],[21.536099,42.240465],[21.589608,42.266772],[21.525239,42.329426],[21.541035,42.372911],[21.582302,42.367951],[21.598493,42.385017],[21.619818,42.377578],[21.648448,42.418843],[21.621627,42.45486],[21.709887,42.519655],[21.694091,42.538426],[21.714034,42.5505],[21.738715,42.547882],[21.748918,42.565385],[21.732924,42.602457],[21.788013,42.651708],[21.753854,42.700628],[21.686397,42.690783],[21.674455,42.686594],[21.671954,42.676752],[21.664348,42.66942],[21.645315,42.677304],[21.637672,42.698057],[21.628088,42.700238],[21.619555,42.694615],[21.600717,42.700726],[21.586087,42.705873],[21.592688,42.724302],[21.562325,42.737878],[21.539883,42.725272],[21.479157,42.747088],[21.468597,42.737878],[21.446154,42.749027],[21.404299,42.747844],[21.424902,42.818126],[21.441437,42.852297],[21.426405,42.876536],[21.378304,42.87213],[21.336215,42.90517],[21.270587,42.908088],[21.246296,42.979963],[21.233272,43.008551],[21.2094,43.027481],[21.164065,42.991793],[21.157144,43.092058],[21.13229,43.115997],[21.086163,43.131148],[21.05618,43.107579],[21.027036,43.130695],[20.985244,43.138602],[20.975073,43.123088],[20.830052,43.179166],[20.853601,43.186362],[20.847925,43.206675],[20.890041,43.209377],[20.859742,43.245305],[20.810745,43.271444],[20.793666,43.258984],[20.793509,43.242809],[20.730334,43.248561],[20.680979,43.210203],[20.590165,43.210203],[20.611223,43.1699],[20.696114,43.10219],[20.658604,43.07095],[20.642152,43.005966],[20.615829,43.003078],[20.60859,43.018958],[20.578319,43.014628],[20.55068,42.960231],[20.517776,42.974196],[20.484215,42.929402],[20.537519,42.88361],[20.444765,42.83523],[20.411225,42.849468],[20.352971,42.833073],[20.273419,42.825583],[20.251647,42.810477],[20.272831,42.773774],[20.192805,42.74526],[20.157499,42.767726],[20.148085,42.752173],[20.061586,42.778956],[20.021573,42.762542],[20.019219,42.712842],[20.111602,42.653148],[20.070412,42.611156],[20.083358,42.554833],[20.161618,42.498892],[20.223991,42.418146],[20.210458,42.40381],[20.258709,42.363823],[20.236348,42.342951],[20.259885,42.320766],[20.307548,42.31598],[20.331673,42.329902],[20.501872,42.235977],[20.544239,42.16318],[20.570129,42.117366],[20.553654,42.078945],[20.591866,42.042446],[20.621288,41.976863],[20.617757,41.938357],[20.61658,41.939232],[20.57423,41.920764]]]}}]}