{
  "type": "FeatureCollection",
  "features": [
    {
      "type": "Feature",
      "geometry": {
        "type": "Polygon",
        "coordinates": [
          [
            [
              19.826476,
              42.4605207
            ],
            [
              19.7674927,
              42.5033675
            ],
            [
              19.7440564,
              42.5584068
            ],
            [
              19.7741146,
              42.5903203
            ],
            [
              19.723336,
              42.6611496
            ],
            [
              19.681919,
              42.6282794
            ],
            [
              19.66775,
              42.6314871
            ],
            [
              19.6619371,
              42.624537
            ],
            [
              19.6196002,
              42.5820093
            ],
            [
              19.6167375,
              42.5398392
            ],
            [
              19.5652099,
              42.5081929
            ],
            [
              19.5308582,
              42.4448523
            ],
            [
              19.4993691,
              42.4385147
            ],
            [
              19.4764679,
              42.3941336
            ],
            [
              19.4249403,
              42.3729887
            ],
            [
              19.4163524,
              42.3306775
            ],
            [
              19.3568537,
              42.2465084
            ],
            [
              19.279418,
              42.1775718
            ],
            [
              19.32923,
              42.1441646
            ],
            [
              19.398018,
              42.1160185
            ],
            [
              19.371926,
              42.0085968
            ],
            [
              19.395646,
              41.9662827
            ],
            [
              19.345834,
              41.9521718
            ],
            [
              19.37177,
              41.87755
            ],
            [
              19.3628652,
              41.7169606
            ],
            [
              19.0206292,
              41.7856314
            ],
            [
              18.4932933,
              42.2163446
            ],
            [
              18.5397779,
              42.4049032
            ],
            [
              18.45,
              42.48
            ],
            [
              18.4300035,
              42.5434521
            ],
            [
              18.4864732,
              42.5850431
            ],
            [
              18.5464723,
              42.5798457
            ],
            [
              18.5182374,
              42.6214125
            ],
            [
              18.56,
              42.65
            ],
            [
              18.568232,
              42.7218938
            ],
            [
              18.4833838,
              42.7290173
            ],
            [
              18.4688384,
              42.801986
            ],
            [
              18.4858081,
              42.9228176
            ],
            [
              18.52702,
              43.0203761
            ],
            [
              18.6624158,
              43.0436602
            ],
            [
              18.6551431,
              43.1870009
            ],
            [
              18.6809258,
              43.2214047
            ],
            [
              18.7107827,
              43.2301069
            ],
            [
              18.6947066,
              43.2544384
            ],
            [
              18.7384756,
              43.2857938
            ],
            [
              18.85321,
              43.3221027
            ],
            [
              18.8400127,
              43.3496198
            ],
            [
              18.9057478,
              43.3598663
            ],
            [
              18.9605487,
              43.3291431
            ],
            [
              18.9543899,
              43.2900902
            ],
            [
              19.0172624,
              43.2540209
            ],
            [
              19.0361496,
              43.2873228
            ],
            [
              19.0778683,
              43.3016742
            ],
            [
              19.0099644,
              43.4197358
            ],
            [
              18.9251417,
              43.5024651
            ],
            [
              18.9899318,
              43.5599669
            ],
            [
              19.0524863,
              43.5079805
            ],
            [
              19.1562352,
              43.5345324
            ],
            [
              19.227944,
              43.525683
            ],
            [
              19.2416754,
              43.4769886
            ],
            [
              19.2848031,
              43.4472482
            ],
            [
              19.3321003,
              43.4372782
            ],
            [
              19.3580376,
              43.4140085
            ],
            [
              19.4526321,
              43.3874037
            ],
            [
              19.4729589,
              43.3360848
            ],
            [
              19.5350209,
              43.3086292
            ],
            [
              19.5289181,
              43.2797567
            ],
            [
              19.5518038,
              43.2453138
            ],
            [
              19.6067297,
              43.2408682
            ],
            [
              19.63,
              43.21378
            ],
            [
              19.7104786,
              43.1685807
            ],
            [
              19.7699387,
              43.1602498
            ],
            [
              19.8080816,
              43.1179439
            ],
            [
              19.838596,
              43.1179439
            ],
            [
              19.8370703,
              43.0967801
            ],
            [
              19.8645332,
              43.1123752
            ],
            [
              19.9209848,
              43.088981
            ],
            [
              19.9667564,
              43.1146028
            ],
            [
              19.969321,
              43.0835222
            ],
            [
              19.9907908,
              43.0500609
            ],
            [
              20.0423184,
              43.0280921
            ],
            [
              20.0952773,
              42.9925067
            ],
            [
              20.1181785,
              42.9631857
            ],
            [
              20.1482363,
              42.9904128
            ],
            [
              20.1525302,
              42.9736591
            ],
            [
              20.1811567,
              42.9747063
            ],
            [
              20.1954699,
              42.9589958
            ],
            [
              20.2126458,
              42.9610908
            ],
            [
              20.2263274,
              42.9460088
            ],
            [
              20.2978935,
              42.9302909
            ],
            [
              20.3522837,
              42.9061825
            ],
            [
              20.3494211,
              42.8327508
            ],
            [
              20.25758,
              42.81275
            ],
            [
              20.2645405,
              42.7755946
            ],
            [
              20.2366912,
              42.7542603
            ],
            [
              20.1906793,
              42.7480363
            ],
            [
              20.0950229,
              42.7747059
            ],
            [
              20.0218603,
              42.7646847
            ],
            [
              20.0207239,
              42.7149407
            ],
            [
              20.1114624,
              42.647234
            ],
            [
              20.0764243,
              42.6205666
            ],
            [
              20.0836893,
              42.5849163
            ],
            [
              20.0776351,
              42.5545975
            ],
            [
              20.0546291,
              42.5519217
            ],
            [
              20.0170931,
              42.5367561
            ],
            [
              20.0086172,
              42.5099844
            ],
            [
              19.9335452,
              42.5171246
            ],
            [
              19.9093284,
              42.5064139
            ],
            [
              19.8984308,
              42.4876658
            ],
            [
              19.8705815,
              42.4921302
            ],
            [
              19.826476,
              42.4605207
            ]
          ]
        ]
      },
      "properties": {
        "name": "Montenegro",
        "name_local": "Crna Gora",
        "iso_a3": "MNE"
      }
    },
    {
      "type": "Feature",
      "geometry": {
        "type": "Polygon",
        "coordinates": [
          [
            [
              45.05699157714843,
              39.79376521264885
            ],
            [
              45.04737854003906,
              39.79007200971702
            ],
            [
              45.03639221191406,
              39.768436410838426
            ],
            [
              45.0164794921875,
              39.765797457856515
            ],
            [
              45.00823974609375,
              39.751017451967144
            ],
            [
              44.99794006347656,
              39.751017451967144
            ],
            [
              44.940948486328125,
              39.72778532033429
            ],
            [
              44.90936279296875,
              39.72884149621558
            ],
            [
              44.90318298339844,
              39.740986355883564
            ],
            [
              44.883270263671875,
              39.74784989518784
            ],
            [
              44.87777709960937,
              39.73729032077588
            ],
            [
              44.86061096191406,
              39.73676229957947
            ],
            [
              44.76310729980469,
              39.71458175667416
            ],
            [
              44.76997375488281,
              39.71088430584141
            ],
            [
              44.765167236328125,
              39.70296052957233
            ],
            [
              44.78027343749999,
              39.700847368881
            ],
            [
              44.78096008300781,
              39.69450749856091
            ],
            [
              44.79057312011719,
              39.690280594818034
            ],
            [
              44.7857666015625,
              39.684996601181304
            ],
            [
              44.80018615722656,
              39.6834113242346
            ],
            [
              44.7967529296875,
              39.66967073288872
            ],
            [
              44.80705261230469,
              39.66967073288872
            ],
            [
              44.80293273925781,
              39.658041943725856
            ],
            [
              44.817352294921875,
              39.65328414777011
            ],
            [
              44.817352294921875,
              39.64429630635774
            ],
            [
              44.80842590332031,
              39.63848002167708
            ],
            [
              44.80979919433594,
              39.627903705425176
            ],
            [
              44.817352294921875,
              39.612036199336956
            ],
            [
              44.83795166015625,
              39.6109782362526
            ],
            [
              44.85443115234374,
              39.6035720419788
            ],
            [
              44.86541748046875,
              39.606746222241476
            ],
            [
              44.87297058105469,
              39.61362311364913
            ],
            [
              44.87983703613281,
              39.6093912613121
            ],
            [
              44.87846374511719,
              39.594048628201314
            ],
            [
              44.89013671875,
              39.596165055536716
            ],
            [
              44.89631652832031,
              39.60515915029787
            ],
            [
              44.899749755859375,
              39.59669415226693
            ],
            [
              44.88807678222656,
              39.58029027440865
            ],
            [
              44.91691589355469,
              39.564941195531496
            ],
            [
              44.90867614746093,
              39.56070636884735
            ],
            [
              44.90592956542969,
              39.54058741081079
            ],
            [
              44.9176025390625,
              39.53211452527176
            ],
            [
              44.90867614746093,
              39.526288816558626
            ],
            [
              44.93614196777343,
              39.51198727745152
            ],
            [
              44.95330810546875,
              39.490794399675956
            ],
            [
              44.94026184082031,
              39.48655504867786
            ],
            [
              44.95124816894531,
              39.4844352762545
            ],
            [
              44.93888854980469,
              39.47913556250761
            ],
            [
              44.94575500488281,
              39.47171528483254
            ],
            [
              44.940948486328125,
              39.460053249419396
            ],
            [
              44.946441650390625,
              39.45316112807394
            ],
            [
              44.96635437011719,
              39.45104033807322
            ],
            [
              44.97528076171874,
              39.44838925972837
            ],
            [
              44.960174560546875,
              39.44202625988515
            ],
            [
              44.96086120605469,
              39.422403350697984
            ],
            [
              44.98626708984375,
              39.41762937499559
            ],
            [
              45.02128601074219,
              39.40277491523911
            ],
            [
              45.04531860351562,
              39.38101803294523
            ],
            [
              45.05699157714843,
              39.38101803294523
            ],
            [
              45.05767822265625,
              39.364032338047984
            ],
            [
              45.08583068847656,
              39.35075938888224
            ],
            [
              45.080337524414055,
              39.33589069206677
            ],
            [
              45.08995056152344,
              39.330048552942415
            ],
            [
              45.100250244140625,
              39.33270413123943
            ],
            [
              45.11054992675781,
              39.30933158108431
            ],
            [
              45.12840270996094,
              39.297111003754964
            ],
            [
              45.11947631835937,
              39.28648268048973
            ],
            [
              45.14282226562499,
              39.284356822253635
            ],
            [
              45.13664245605469,
              39.26894242038886
            ],
            [
              45.146942138671875,
              39.261499771230774
            ],
            [
              45.14900207519531,
              39.22480659786848
            ],
            [
              45.160675048828125,
              39.214167307512355
            ],
            [
              45.17509460449219,
              39.222678868789686
            ],
            [
              45.19844055175781,
              39.21310328979648
            ],
            [
              45.19981384277344,
              39.20459056764485
            ],
            [
              45.29594421386719,
              39.182239762945684
            ],
            [
              45.36048889160156,
              39.14816772482178
            ],
            [
              45.405120849609375,
              39.09223254260029
            ],
            [
              45.402374267578125,
              39.07570985562645
            ],
            [
              45.432586669921875,
              39.05438454155225
            ],
            [
              45.4559326171875,
              39.05118518880596
            ],
            [
              45.43876647949218,
              39.01598274340996
            ],
            [
              45.44219970703125,
              39.00050945751261
            ],
            [
              45.462112426757805,
              38.989302551359515
            ],
            [
              45.514984130859375,
              38.977026284557624
            ],
            [
              45.54107666015625,
              38.966349539681055
            ],
            [
              45.560302734375,
              38.97062043076873
            ],
            [
              45.582962036132805,
              38.97809387052251
            ],
            [
              45.58982849121094,
              38.966349539681055
            ],
            [
              45.61248779296875,
              38.95780698499453
            ],
            [
              45.61592102050781,
              38.94338908847991
            ],
            [
              45.63995361328125,
              38.9476613635683
            ],
            [
              45.65093994140625,
              38.95246736528457
            ],
            [
              45.68046569824218,
              38.94659331893374
            ],
            [
              45.69419860839844,
              38.950865400919994
            ],
            [
              45.69969177246094,
              38.94499122180986
            ],
            [
              45.70587158203125,
              38.94552525820741
            ],
            [
              45.73883056640624,
              38.92896825930919
            ],
            [
              45.76286315917969,
              38.92896825930919
            ],
            [
              45.7745361328125,
              38.923626467304864
            ],
            [
              45.78346252441406,
              38.925763232374514
            ],
            [
              45.78826904296875,
              38.91935274409853
            ],
            [
              45.7965087890625,
              38.92255806063647
            ],
            [
              45.79994201660156,
              38.914544497799476
            ],
            [
              45.83152770996094,
              38.90439268578113
            ],
            [
              45.841827392578125,
              38.909735925720305
            ],
            [
              45.8624267578125,
              38.89958342598271
            ],
            [
              45.8624267578125,
              38.891567269117026
            ],
            [
              45.89195251464844,
              38.88087765252438
            ],
            [
              45.907745361328125,
              38.87660135553313
            ],
            [
              45.92559814453125,
              38.87767045390622
            ],
            [
              45.94001770019531,
              38.89584266537804
            ],
            [
              45.96199035644531,
              38.88996392916758
            ],
            [
              45.98258972167969,
              38.87873953619587
            ],
            [
              46.03752136230469,
              38.872859384572244
            ],
            [
              46.05125427246094,
              38.87660135553313
            ],
            [
              46.05400085449219,
              38.885688179036094
            ],
            [
              46.067047119140625,
              38.88622266187655
            ],
            [
              46.07872009277344,
              38.87072102699576
            ],
            [
              46.113052368164055,
              38.86590948724248
            ],
            [
              46.11030578613281,
              38.858958910448536
            ],
            [
              46.14189147949219,
              38.84291652482239
            ],
            [
              46.142578125,
              38.87072102699576
            ],
            [
              46.15081787109375,
              38.88942947447528
            ],
            [
              46.13914489746094,
              38.91187310908562
            ],
            [
              46.12884521484374,
              38.91561302513129
            ],
            [
              46.12266540527344,
              38.94445718138944
            ],
            [
              46.11030578613281,
              38.95460326144691
            ],
            [
              46.11167907714844,
              38.97756007955202
            ],
            [
              46.1041259765625,
              38.98503278695909
            ],
            [
              46.10137939453124,
              39.020784109393176
            ],
            [
              46.07460021972656,
              39.03091925576062
            ],
            [
              46.06842041015625,
              39.07890809706475
            ],
            [
              46.05262756347656,
              39.081040177486095
            ],
            [
              46.03134155273437,
              39.091699613104595
            ],
            [
              46.0162353515625,
              39.112480879079556
            ],
            [
              46.02653503417969,
              39.1252663054351
            ],
            [
              46.02241516113281,
              39.14177738036501
            ],
            [
              46.00318908691406,
              39.14870022733891
            ],
            [
              46.00868225097656,
              39.15988184949157
            ],
            [
              45.987396240234375,
              39.20937910082159
            ],
            [
              45.987396240234375,
              39.243953257043124
            ],
            [
              46.0052490234375,
              39.25565142103588
            ],
            [
              46.001129150390625,
              39.28488829286195
            ],
            [
              45.9942626953125,
              39.29285986803579
            ],
            [
              45.96748352050781,
              39.29604824402406
            ],
            [
              45.94207763671875,
              39.31251920686766
            ],
            [
              45.926284790039055,
              39.3204876360208
            ],
            [
              45.90019226074219,
              39.33429742980725
            ],
            [
              45.8514404296875,
              39.35766163717121
            ],
            [
              45.82191467285156,
              39.35925436686273
            ],
            [
              45.79444885253906,
              39.36987163674661
            ],
            [
              45.79032897949219,
              39.386325215154336
            ],
            [
              45.805435180664055,
              39.42770738465604
            ],
            [
              45.814361572265625,
              39.43141996823385
            ],
            [
              45.822601318359375,
              39.44520783247914
            ],
            [
              45.839080810546875,
              39.45899296747316
            ],
            [
              45.83702087402344,
              39.4669446883827
            ],
            [
              45.81298828124999,
              39.487084981687495
            ],
            [
              45.825347900390625,
              39.50615988027491
            ],
            [
              45.81779479980469,
              39.52258129288271
            ],
            [
              45.797882080078125,
              39.5712929506796
            ],
            [
              45.7855224609375,
              39.56917576361523
            ],
            [
              45.77728271484375,
              39.585053090643605
            ],
            [
              45.76080322265625,
              39.58399471532369
            ],
            [
              45.74913024902344,
              39.593519511263864
            ],
            [
              45.73951721191406,
              39.59140300310023
            ],
            [
              45.72372436523437,
              39.6025139495577
            ],
            [
              45.69007873535156,
              39.60092678061372
            ],
            [
              45.671539306640625,
              39.58452390500424
            ],
            [
              45.655059814453125,
              39.580819492376925
            ],
            [
              45.62828063964844,
              39.5681171458385
            ],
            [
              45.62210083007812,
              39.5633531658293
            ],
            [
              45.61317443847656,
              39.56388251310399
            ],
            [
              45.597381591796875,
              39.56864645674722
            ],
            [
              45.57334899902344,
              39.56917576361523
            ],
            [
              45.56098937988281,
              39.54376447625301
            ],
            [
              45.553436279296875,
              39.546941396253146
            ],
            [
              45.53352355957031,
              39.54376447625301
            ],
            [
              45.525970458984375,
              39.528407312645825
            ],
            [
              45.51910400390625,
              39.524699902077586
            ],
            [
              45.51155090332031,
              39.51993294050091
            ],
            [
              45.48683166503906,
              39.51198727745152
            ],
            [
              45.47378540039062,
              39.48920467334085
            ],
            [
              45.462799072265625,
              39.50457050531535
            ],
            [
              45.44563293457031,
              39.50351090181401
            ],
            [
              45.438079833984375,
              39.52205163048525
            ],
            [
              45.4229736328125,
              39.52522954427751
            ],
            [
              45.38726806640625,
              39.53793974517628
            ],
            [
              45.34538269042968,
              39.53952835667679
            ],
            [
              45.330963134765625,
              39.554883059924016
            ],
            [
              45.30967712402344,
              39.56176509976178
            ],
            [
              45.298004150390625,
              39.58558227224178
            ],
            [
              45.30624389648437,
              39.6088622615816
            ],
            [
              45.29319763183594,
              39.6109782362526
            ],
            [
              45.247879028320305,
              39.609920257000795
            ],
            [
              45.22590637207031,
              39.604101082126846
            ],
            [
              45.22590637207031,
              39.58928643027501
            ],
            [
              45.2142333984375,
              39.58187791619025
            ],
            [
              45.17303466796875,
              39.593519511263864
            ],
            [
              45.17234802246094,
              39.62314383558127
            ],
            [
              45.18608093261719,
              39.65011210186371
            ],
            [
              45.17509460449219,
              39.65116946667103
            ],
            [
              45.1702880859375,
              39.665442308708904
            ],
            [
              45.18333435058594,
              39.68076911511416
            ],
            [
              45.16548156738281,
              39.69239407904182
            ],
            [
              45.13801574707031,
              39.72884149621558
            ],
            [
              45.11810302734375,
              39.76210275375139
            ],
            [
              45.08995056152344,
              39.78057429170315
            ],
            [
              45.05699157714843,
              39.79376521264885
            ]
          ]
        ]
      },
      "properties": {
        "name": "Naxçıvan Muxtar Respublikası",
        "name_fr": "République autonome du Nakhitchevan",
        "excludes": "Kərki (Karki) exclave"
      }
    }
  ]
}
