{"type":"FeatureCollection","features":[{"type":"Feature","properties":{"id":"nagaland","name":"Nagaland"},"geometry":{"type":"Polygon","coordinates":[[[94.736108,26.749663],[94.739996,26.776186],[94.758371,26.766065],[94.770032,26.789099],[94.790881,26.797126],[94.788761,26.797475],[94.802542,26.801314],[94.795121,26.814227],[94.795475,26.814227],[94.814203,26.819811],[94.817383,26.84773],[94.817383,26.84773],[94.849893,26.874603],[94.865795,26.908805],[94.871096,26.913342],[94.882403,26.923113],[94.889471,26.929046],[94.905726,26.937422],[94.924101,26.94859],[94.930815,26.932536],[94.958731,26.936724],[94.961205,26.937073],[94.982407,26.912993],[95.016684,26.921019],[95.101846,26.961852],[95.11174,26.980698],[95.193369,27.035839],[95.193369,27.035839],[95.193369,27.035839],[95.195489,27.035141],[95.191602,26.984886],[95.21139,26.966389],[95.202203,26.958013],[95.206797,26.941959],[95.230119,26.922764],[95.232239,26.902872],[95.227999,26.880885],[95.208564,26.882281],[95.181001,26.856106],[95.20291,26.846334],[95.197256,26.822603],[95.20821,26.795032],[95.24178,26.782817],[95.242487,26.782468],[95.216338,26.755596],[95.209977,26.728723],[95.232946,26.705689],[95.234006,26.683004],[95.234006,26.682306],[95.208564,26.647756],[95.181001,26.64287],[95.149197,26.615997],[95.154145,26.582843],[95.139303,26.55597],[95.125168,26.557715],[95.107146,26.541312],[95.114214,26.518279],[95.061915,26.449875],[95.066156,26.4415],[95.084531,26.447432],[95.103966,26.42056],[95.099726,26.394036],[95.129055,26.384962],[95.121988,26.347969],[95.128349,26.339593],[95.119514,26.264908],[95.127289,26.25374],[95.114567,26.2328],[95.142483,26.211511],[95.121988,26.184988],[95.117041,26.158813],[95.126228,26.129148],[95.115981,26.107511],[95.149551,26.08692],[95.164746,26.092504],[95.185595,26.073309],[95.125875,25.98606],[95.089125,25.950463],[95.043893,25.92708],[95.030819,25.931268],[95.013504,25.891133],[95.014917,25.891482],[95.00891,25.867053],[95.029405,25.84018],[95.032939,25.814354],[95.049901,25.800744],[95.04036,25.741763],[95.003256,25.728502],[94.970392,25.688716],[94.936469,25.668125],[94.914913,25.6074],[94.88311,25.586111],[94.898305,25.565521],[94.845653,25.561333],[94.825158,25.542487],[94.807842,25.493976],[94.783813,25.480715],[94.761904,25.482111],[94.751657,25.493627],[94.718087,25.469198],[94.683456,25.466057],[94.675329,25.445466],[94.616316,25.462218],[94.615256,25.463265],[94.576739,25.495721],[94.55695,25.501654],[94.554123,25.503748],[94.566491,25.548071],[94.55589,25.554702],[94.564371,25.563427],[94.550943,25.57948],[94.583453,25.634273],[94.593347,25.635669],[94.573912,25.640555],[94.58628,25.663937],[94.580272,25.668823],[94.596527,25.682434],[94.595821,25.682434],[94.580272,25.688716],[94.573205,25.691508],[94.572852,25.691508],[94.571792,25.691857],[94.530801,25.643696],[94.520906,25.63881],[94.497231,25.613682],[94.48875,25.604608],[94.480976,25.614031],[94.477795,25.614031],[94.425143,25.58646],[94.416662,25.536554],[94.385213,25.532366],[94.321606,25.50305],[94.284502,25.507936],[94.249872,25.494325],[94.232557,25.495023],[94.214535,25.495721],[94.208528,25.49607],[94.197927,25.512473],[94.187679,25.528876],[94.185912,25.531668],[94.189446,25.547722],[94.189799,25.549118],[94.178138,25.550514],[94.165063,25.54144],[94.156229,25.551212],[94.140327,25.519453],[94.108171,25.521896],[94.084495,25.530272],[94.094036,25.537252],[94.084848,25.554702],[94.06718,25.552259],[94.048098,25.575641],[94.038204,25.570058],[94.012761,25.592742],[94.00216,25.58646],[94.007107,25.568662],[94.006047,25.567266],[93.983078,25.568313],[93.957282,25.551212],[93.948801,25.552957],[93.935726,25.55889],[93.888728,25.565172],[93.861165,25.553306],[93.834309,25.560635],[93.816641,25.540393],[93.765049,25.538648],[93.765049,25.538299],[93.764696,25.536554],[93.758335,25.504097],[93.761515,25.49956],[93.763989,25.496419],[93.766462,25.493627],[93.785898,25.502701],[93.786958,25.50305],[93.800386,25.496419],[93.809927,25.483856],[93.80498,25.463265],[93.80498,25.463265],[93.80498,25.463265],[93.774237,25.41964],[93.74208,25.403936],[93.709217,25.35717],[93.686601,25.359962],[93.681654,25.328902],[93.664692,25.325761],[93.667519,25.310754],[93.605326,25.199075],[93.588011,25.201169],[93.584124,25.22176],[93.556208,25.245841],[93.555854,25.245841],[93.501789,25.242351],[93.506382,25.269223],[93.472106,25.271666],[93.472106,25.303425],[93.469985,25.305868],[93.44843,25.340767],[93.472106,25.383694],[93.473166,25.385439],[93.470692,25.388231],[93.457971,25.431157],[93.456204,25.432553],[93.455851,25.433949],[93.453024,25.434996],[93.424754,25.446513],[93.390124,25.460473],[93.391184,25.48246],[93.386237,25.48595],[93.38553,25.490487],[93.359027,25.515265],[93.350193,25.532366],[93.330051,25.542487],[93.330051,25.542138],[93.328991,25.543185],[93.337118,25.554702],[93.341006,25.558192],[93.358674,25.554702],[93.426521,25.632179],[93.444189,25.639857],[93.460798,25.632528],[93.460798,25.632528],[93.457264,25.641253],[93.490127,25.65242],[93.496488,25.654514],[93.502849,25.664984],[93.512743,25.675105],[93.522284,25.69779],[93.527231,25.691159],[93.541013,25.698837],[93.542426,25.730944],[93.561508,25.737924],[93.567869,25.758515],[93.577763,25.754676],[93.61734,25.775965],[93.624761,25.802489],[93.645963,25.822381],[93.668226,25.822032],[93.688368,25.846113],[93.714164,25.844717],[93.702149,25.851697],[93.6813,25.904395],[93.751268,25.933013],[93.745614,25.942436],[93.756215,25.946624],[93.767523,25.950463],[93.767523,25.950812],[93.767876,25.951161],[93.765402,25.968959],[93.77353,25.968959],[93.77565,25.96861],[93.774237,25.96547],[93.795439,25.905791],[93.777417,25.849952],[93.795439,25.809119],[93.83961,25.856583],[93.881661,25.843321],[93.915938,25.883805],[93.93396,25.885201],[93.937847,25.896368],[93.978484,25.916959],[93.96859,25.957443],[93.954102,25.969308],[93.953042,26.003161],[93.962229,26.036665],[93.987318,26.067027],[93.981311,26.081336],[93.997919,26.109605],[93.986612,26.114142],[93.997566,26.128799],[93.989085,26.130893],[94.00216,26.134383],[93.994386,26.148343],[94.0011,26.172424],[94.031843,26.197552],[94.047745,26.249552],[94.074601,26.264559],[94.074601,26.283753],[94.084142,26.283405],[94.10499,26.320049],[94.121599,26.317955],[94.115945,26.329821],[94.144921,26.330519],[94.160469,26.337848],[94.171777,26.343432],[94.177785,26.346224],[94.16789,26.346922],[94.163296,26.35111],[94.171071,26.362975],[94.171071,26.372049],[94.171777,26.429983],[94.183085,26.455459],[94.236444,26.506064],[94.243511,26.518977],[94.282382,26.55946],[94.284149,26.560856],[94.289803,26.479889],[94.313832,26.460694],[94.316659,26.458251],[94.325493,26.481983],[94.352349,26.49001],[94.352703,26.49001],[94.352703,26.490359],[94.347755,26.504668],[94.372138,26.506064],[94.376025,26.521768],[94.400761,26.534332],[94.413129,26.577259],[94.402881,26.610762],[94.451293,26.636239],[94.465427,26.633098],[94.453059,26.652642],[94.460127,26.661716],[94.492637,26.665904],[94.508185,26.685447],[94.517373,26.681957],[94.520553,26.699407],[94.562251,26.70534],[94.559424,26.686494],[94.566844,26.683702],[94.577092,26.700803],[94.593701,26.697313],[94.593347,26.715112],[94.595467,26.714414],[94.602888,26.711622],[94.601475,26.713018],[94.594761,26.717904],[94.591227,26.721045],[94.585926,26.725233],[94.594761,26.72977],[94.596881,26.734656],[94.608189,26.73675],[94.609249,26.737099],[94.609602,26.737099],[94.620203,26.71232],[94.692291,26.731864],[94.737169,26.762575],[94.736108,26.749663]]]}}]}