{
  "type": "FeatureCollection",
  "features": [
    {
      "type": "Feature",
      "properties": {
        "@circle": {
          "type": "Mercator",
          "center": [
            -169.85341,
            -19.0382682
          ]
        }
      },
      "geometry": {
        "type": "Polygon",
        "coordinates": [
          [
            [
              -169.20003009765796,
              -19.038268200000005
            ],
            [
              -169.20131939364478,
              -18.99948169800538
            ],
            [
              -169.205182193343,
              -18.960839279338195
            ],
            [
              -169.21160325204704,
              -18.922493622804733
            ],
            [
              -169.22055722877164,
              -18.884596338704164
            ],
            [
              -169.23200878626128,
              -18.84729736583919
            ],
            [
              -169.2459127304504,
              -18.81074437360774
            ],
            [
              -169.2622141888233,
              -18.775082171641046
            ],
            [
              -169.28084882697124,
              -18.740452129445217
            ],
            [
              -169.30174310249083,
              -18.706991608482237
            ],
            [
              -169.32481455522222,
              -18.674833409093385
            ],
            [
              -169.34997213268187,
              -18.644105234622657
            ],
            [
              -169.37711654940497,
              -18.614929175041038
            ],
            [
              -169.40614067877976,
              -18.587421212302313
            ],
            [
              -169.43692997582752,
              -18.561690749580617
            ],
            [
              -169.46936292925906,
              -18.537840166447243
            ],
            [
              -169.50331154102437,
              -18.51596440194017
            ],
            [
              -169.5386418314625,
              -18.49615056736621
            ],
            [
              -169.57521436805797,
              -18.47847759055097
            ],
            [
              -169.6128848157172,
              -18.463015893118442
            ],
            [
              -169.65150450639325,
              -18.449827102239823
            ],
            [
              -169.69092102581075,
              -18.438963798141234
            ],
            [
              -169.73097881497526,
              -18.43046929850233
            ],
            [
              -169.77151978409356,
              -18.424377480714686
            ],
            [
              -169.81238393648195,
              -18.420712642800332
            ],
            [
              -169.85341,
              -18.419489403616996
            ],
            [
              -169.89443606351807,
              -18.420712642800332
            ],
            [
              -169.93530021590647,
              -18.424377480714686
            ],
            [
              -169.97584118502476,
              -18.43046929850233
            ],
            [
              -170.01589897418924,
              -18.438963798141234
            ],
            [
              -170.05531549360677,
              -18.449827102239823
            ],
            [
              -170.09393518428283,
              -18.463015893118442
            ],
            [
              -170.13160563194205,
              -18.47847759055097
            ],
            [
              -170.1681781685375,
              -18.49615056736621
            ],
            [
              -170.20350845897565,
              -18.51596440194017
            ],
            [
              -170.23745707074096,
              -18.537840166447243
            ],
            [
              -170.26989002417247,
              -18.561690749580617
            ],
            [
              -170.30067932122026,
              -18.587421212302313
            ],
            [
              -170.32970345059505,
              -18.614929175041038
            ],
            [
              -170.35684786731815,
              -18.644105234622657
            ],
            [
              -170.3820054447778,
              -18.674833409093385
            ],
            [
              -170.4050768975092,
              -18.706991608482237
            ],
            [
              -170.42597117302878,
              -18.740452129445217
            ],
            [
              -170.44460581117673,
              -18.775082171641046
            ],
            [
              -170.4609072695496,
              -18.81074437360774
            ],
            [
              -170.4748112137387,
              -18.84729736583919
            ],
            [
              -170.48626277122838,
              -18.884596338704164
            ],
            [
              -170.49521674795298,
              -18.922493622804733
            ],
            [
              -170.50163780665702,
              -18.960839279338195
            ],
            [
              -170.50550060635524,
              -18.99948169800538
            ],
            [
              -170.50678990234206,
              -19.038268200000005
            ],
            [
              -170.50550060635524,
              -19.077045643615687
            ],
            [
              -170.50163780665702,
              -19.11566103002216
            ],
            [
              -170.49521674795298,
              -19.15396210678698
            ],
            [
              -170.48626277122838,
              -19.19179796675473
            ],
            [
              -170.4748112137387,
              -19.229019639941292
            ],
            [
              -170.4609072695496,
              -19.265480676155786
            ],
            [
              -170.44460581117673,
              -19.301037716125574
            ],
            [
              -170.42597117302878,
              -19.3355510489719
            ],
            [
              -170.4050768975092,
              -19.36888515396121
            ],
            [
              -170.3820054447778,
              -19.400909224542893
            ],
            [
              -170.35684786731815,
              -19.431497672773904
            ],
            [
              -170.32970345059505,
              -19.460530612326718
            ],
            [
              -170.30067932122026,
              -19.487894318375726
            ],
            [
              -170.26989002417247,
              -19.513481662760913
            ],
            [
              -170.23745707074096,
              -19.53719252293284
            ],
            [
              -170.20350845897565,
              -19.558934163290964
            ],
            [
              -170.1681781685375,
              -19.57862158763676
            ],
            [
              -170.13160563194205,
              -19.596177861574287
            ],
            [
              -170.09393518428283,
              -19.61153440380134
            ],
            [
              -170.05531549360677,
              -19.624631245347306
            ],
            [
              -170.01589897418924,
              -19.63541725592469
            ],
            [
              -169.97584118502476,
              -19.64385033667397
            ],
            [
              -169.93530021590647,
              -19.649897578692777
            ],
            [
              -169.89443606351807,
              -19.653535386851434
            ],
            [
              -169.85341,
              -19.654749568508716
            ],
            [
              -169.81238393648195,
              -19.653535386851434
            ],
            [
              -169.77151978409356,
              -19.649897578692777
            ],
            [
              -169.73097881497526,
              -19.64385033667397
            ],
            [
              -169.69092102581075,
              -19.63541725592469
            ],
            [
              -169.65150450639325,
              -19.624631245347306
            ],
            [
              -169.6128848157172,
              -19.61153440380134
            ],
            [
              -169.57521436805797,
              -19.596177861574287
            ],
            [
              -169.5386418314625,
              -19.57862158763676
            ],
            [
              -169.50331154102437,
              -19.558934163290964
            ],
            [
              -169.46936292925906,
              -19.53719252293284
            ],
            [
              -169.43692997582752,
              -19.513481662760913
            ],
            [
              -169.40614067877976,
              -19.487894318375726
            ],
            [
              -169.37711654940497,
              -19.460530612326718
            ],
            [
              -169.34997213268187,
              -19.431497672773904
            ],
            [
              -169.32481455522222,
              -19.400909224542893
            ],
            [
              -169.30174310249083,
              -19.36888515396121
            ],
            [
              -169.28084882697124,
              -19.3355510489719
            ],
            [
              -169.2622141888233,
              -19.301037716125574
            ],
            [
              -169.2459127304504,
              -19.265480676155786
            ],
            [
              -169.23200878626128,
              -19.229019639941292
            ],
            [
              -169.22055722877164,
              -19.19179796675473
            ],
            [
              -169.21160325204704,
              -19.15396210678698
            ],
            [
              -169.205182193343,
              -19.11566103002216
            ],
            [
              -169.20003009765796,
              -19.038268200000005
            ]
          ]
        ]
      }
    }
  ]
}
