{"type":"FeatureCollection","features":[{"type":"Feature","geometry":{"type":"Polygon","coordinates":[[[-54.65809,55.344425],[-55.657158,56.229882],[-57.31765,57.616075],[-58.713586,58.83546],[-59.782705,59.831148],[-61.435424,61.099924],[-64.756335,60.539081],[-64.340384,60.447745],[-64.434418,60.378143],[-64.491152,60.371911],[-64.534754,60.337393],[-64.511056,60.303012],[-64.530907,60.297391],[-64.579952,60.307396],[-64.600148,60.299297],[-64.64929,60.294116],[-64.699677,60.301606],[-64.721318,60.28786],[-64.795367,60.278325],[-64.850258,60.268751],[-64.861798,60.25778],[-64.857951,60.252532],[-64.870991,60.232885],[-64.784864,60.204868],[-64.778511,60.196643],[-64.752167,60.189095],[-64.744473,60.170923],[-64.72739,60.164019],[-64.701966,60.170584],[-64.692282,60.180216],[-64.682598,60.181501],[-64.665166,60.169941],[-64.644433,60.169366],[-64.616099,60.170262],[-64.600605,60.167372],[-64.600345,60.156665],[-64.596471,60.149275],[-64.597762,60.142526],[-64.593888,60.118089],[-64.604188,60.109494],[-64.63198,60.105221],[-64.67004,60.112711],[-64.679755,60.106186],[-64.770744,60.108359],[-64.726411,60.093984],[-64.708334,60.086257],[-64.704891,60.074558],[-64.718664,60.065967],[-64.738476,60.057331],[-64.784314,60.05862],[-64.823697,60.049596],[-64.900525,60.063453],[-64.919894,60.066353],[-64.917011,60.058526],[-64.89046,60.042319],[-64.872382,60.015549],[-64.844168,59.970656],[-64.804786,59.969364],[-64.778961,59.979701],[-64.747971,59.972918],[-64.739578,59.951912],[-64.693094,59.959993],[-64.655003,59.951589],[-64.665978,59.928304],[-64.638862,59.936068],[-64.618804,59.928431],[-64.683409,59.876503],[-64.737641,59.885574],[-64.76282,59.87067],[-64.739578,59.857056],[-64.821803,59.831612],[-64.786975,59.809014],[-64.795101,59.800597],[-64.812507,59.79635],[-64.810217,59.777182],[-64.793431,59.760929],[-64.806343,59.72905],[-64.75595,59.718512],[-64.816638,59.683986],[-64.894112,59.659209],[-64.863123,59.590653],[-64.936046,59.589711],[-64.873152,59.546133],[-64.838919,59.553438],[-64.806488,59.526037],[-64.730816,59.467507],[-64.667756,59.453775],[-64.633524,59.482149],[-64.595688,59.462015],[-64.55605,59.494956],[-64.498395,59.505015],[-64.516412,59.516899],[-64.463167,59.524565],[-64.432427,59.539665],[-64.40553,59.527001],[-64.361231,59.524191],[-64.32543,59.516899],[-64.327232,59.500443],[-64.397499,59.467507],[-64.406508,59.473914],[-64.462361,59.457437],[-64.505602,59.423544],[-64.464163,59.417127],[-64.527223,59.400623],[-64.536231,59.370344],[-64.483981,59.351062],[-64.540243,59.317685],[-64.482231,59.259841],[-64.529193,59.199069],[-64.465656,59.17926],[-64.496043,59.105582],[-64.486505,59.098552],[-64.44826,59.102788],[-64.415264,59.088537],[-64.37402,59.092775],[-64.355272,59.067343],[-64.316922,59.065741],[-64.262126,59.01297],[-64.297282,59.002087],[-64.383303,59.005289],[-64.424758,58.990877],[-64.437195,58.994614],[-64.462068,58.981265],[-64.482796,58.989809],[-64.47036,58.999952],[-64.505597,59.019696],[-64.528397,59.001553],[-64.591617,59.029831],[-64.670383,59.041562],[-64.685929,59.071405],[-64.791881,59.071726],[-64.852864,59.004568],[-64.832134,58.923344],[-64.633226,58.940674],[-64.537647,58.889992],[-64.284492,58.902003],[-64.225078,58.856609],[-64.221145,58.78704],[-64.179995,58.788563],[-64.126683,58.739965],[-63.977058,58.834269],[-63.863828,58.830083],[-63.807213,58.851007],[-63.778906,58.88028],[-63.714203,58.886549],[-63.653544,58.859373],[-63.552446,58.861464],[-63.470659,58.7632],[-63.506846,58.742388],[-63.551687,58.734223],[-63.559554,58.726873],[-63.577647,58.730957],[-63.622488,58.724423],[-63.628292,58.715696],[-63.65976,58.723048],[-63.669986,58.718147],[-63.696733,58.719372],[-63.71876,58.704664],[-63.73292,58.705073],[-63.747081,58.716104],[-63.792708,58.703847],[-63.807655,58.713244],[-63.835188,58.711202],[-63.839908,58.701395],[-63.865305,58.696572],[-63.909848,58.70875],[-63.956736,58.686826],[-64.045822,58.69779],[-64.116153,58.62097],[-64.083332,58.587995],[-64.104431,58.561104],[-64.034413,58.527705],[-63.969611,58.527612],[-63.93679,58.566757],[-63.868803,58.56798],[-63.859425,58.544743],[-63.861768,58.504349],[-63.810192,58.490874],[-63.838324,58.463908],[-63.878179,58.430785],[-63.981331,58.44551],[-64.009464,58.420965],[-64.02353,58.366905],[-64.163611,58.367221],[-64.18471,58.310615],[-64.241808,58.225538],[-64.373093,58.20578],[-64.434675,58.157357],[-64.43348,58.117396],[-64.426333,58.078117],[-64.377131,58.065277],[-64.337527,58.066447],[-64.298661,58.045479],[-64.277322,58.049513],[-64.268939,58.062415],[-64.249887,58.041043],[-64.22169,58.038219],[-64.237694,58.023693],[-64.223976,57.98816],[-64.165261,57.918644],[-64.09759,57.802645],[-64.075033,57.771582],[-64.022988,57.766908],[-64.026778,57.806641],[-63.996458,57.811352],[-63.942134,57.790484],[-63.908024,57.79991],[-63.884021,57.711612],[-63.8669,57.711226],[-63.845925,57.719396],[-63.822763,57.706909],[-63.807849,57.684267],[-63.789817,57.686977],[-63.773033,57.700266],[-63.754384,57.719527],[-63.745059,57.687309],[-63.747546,57.673683],[-63.733248,57.663044],[-63.702166,57.663709],[-63.69222,57.652329],[-63.686004,57.69521],[-63.673571,57.691223],[-63.659273,57.702186],[-63.659273,57.714141],[-63.671084,57.722773],[-63.651987,57.731782],[-63.634581,57.728795],[-63.620905,57.73875],[-63.597905,57.740078],[-63.605365,57.69426],[-63.597905,57.682962],[-63.595418,57.663682],[-63.620531,57.641543],[-63.679961,57.603782],[-63.699853,57.61244],[-63.723475,57.603782],[-63.748341,57.579127],[-63.771523,57.589831],[-63.735947,57.427103],[-63.714386,57.436968],[-63.709404,57.422409],[-63.722214,57.397493],[-63.702527,57.37018],[-63.726244,57.357389],[-63.766132,57.358552],[-63.789849,57.35041],[-63.804516,57.332084],[-63.824999,57.341393],[-63.855185,57.335575],[-63.872442,57.298295],[-63.883214,57.281424],[-63.865965,57.227776],[-63.883214,57.193915],[-63.847638,57.206178],[-63.84117,57.223107],[-63.80775,57.261607],[-63.771096,57.253443],[-63.739719,57.234809],[-63.809475,57.082555],[-63.821848,57.074822],[-63.845973,57.081546],[-63.883708,57.088941],[-63.895269,57.019288],[-63.857235,57.004228],[-63.912557,56.974089],[-63.919927,56.911849],[-63.863635,56.885053],[-63.988287,56.85856],[-64.022912,56.77138],[-64.147564,56.703011],[-64.030124,56.647794],[-64.047412,56.617367],[-63.995563,56.573376],[-63.935524,56.535856],[-63.935524,56.480525],[-63.918236,56.442318],[-63.973732,56.399104],[-64.167184,56.436584],[-64.094963,56.341093],[-64.140491,56.300718],[-64.087433,56.260219],[-64.024427,56.263902],[-63.934892,56.263902],[-63.878517,56.212301],[-62.972251,56.178459],[-62.720484,56.06443],[-60.627672,56.076141],[-60.56358,55.909665],[-60.5056,55.871196],[-60.907831,55.790444],[-61.321005,55.700629],[-61.345318,55.315129],[-62.309134,54.987335],[-62.223659,54.928783],[-62.153477,54.885947],[-61.646301,55.055086],[-61.465463,54.92641],[-61.160654,54.8941],[-61.213241,54.746051],[-61.018925,54.64396],[-60.711151,54.729712],[-60.109174,54.48521],[-60.060507,54.04071],[-60.347652,53.864851],[-59.429068,53.414519],[-58.757795,53.671693],[-58.7048,53.859642],[-57.966623,54.021557],[-57.088444,53.984474],[-55.64874,54.289769],[-54.774319,54.781723],[-54.65809,55.344425]]]},"properties":{}}]}