{
  "type": "FeatureCollection",
  "features": [
    {
      "type": "Feature",
      "properties": {
        "@circle": {
          "type": "Mercator",
          "center": [
            -109.3625353,
            -27.1153652
          ]
        }
      },
      "geometry": {
        "type": "Polygon",
        "coordinates": [
          [
            [
              -108.67318939061511,
              -27.115365200000006
            ],
            [
              -108.67454965730118,
              -27.076831542228145
            ],
            [
              -108.67862508900825,
              -27.03843678462075
            ],
            [
              -108.68539960186924,
              -27.000332700140046
            ],
            [
              -108.69484645997689,
              -26.96267006565764
            ],
            [
              -108.70692838089808,
              -26.925598060410643
            ],
            [
              -108.72159768281067,
              -26.889263668507017
            ],
            [
              -108.73879647268177,
              -26.85381108798403
            ],
            [
              -108.75845687474511,
              -26.819381148929327
            ],
            [
              -108.78050129837575,
              -26.78611074316754
            ],
            [
              -108.80484274430478,
              -26.754132267996074
            ],
            [
              -108.83138514796563,
              -26.723573086419613
            ],
            [
              -108.86002375861712,
              -26.694555006285427
            ],
            [
              -108.89064555274679,
              -26.667193780661282
            ],
            [
              -108.92312968012294,
              -26.641598631722132
            ],
            [
              -108.95734794073542,
              -26.61787180032384
            ],
            [
              -108.99316529074243,
              -26.596108123341253
            ],
            [
              -109.03044037542683,
              -26.576394640732985
            ],
            [
              -109.06902608705882,
              -26.558810234169513
            ],
            [
              -109.10877014546266,
              -26.543425298923882
            ],
            [
              -109.14951569899722,
              -26.53030145057516
            ],
            [
              -109.19110194357752,
              -26.51949126791736
            ],
            [
              -109.23336475729518,
              -26.51103807329882
            ],
            [
              -109.27613734813248,
              -26.504975751443226
            ],
            [
              -109.31925091221432,
              -26.501328607620255
            ],
            [
              -109.36253530000002,
              -26.50011126584856
            ],
            [
              -109.4058196877857,
              -26.501328607620255
            ],
            [
              -109.44893325186754,
              -26.504975751443226
            ],
            [
              -109.49170584270483,
              -26.51103807329882
            ],
            [
              -109.5339686564225,
              -26.51949126791736
            ],
            [
              -109.57555490100279,
              -26.53030145057516
            ],
            [
              -109.61630045453734,
              -26.543425298923882
            ],
            [
              -109.6560445129412,
              -26.558810234169513
            ],
            [
              -109.69463022457317,
              -26.576394640732985
            ],
            [
              -109.7319053092576,
              -26.596108123341253
            ],
            [
              -109.76772265926459,
              -26.61787180032384
            ],
            [
              -109.80194091987708,
              -26.641598631722132
            ],
            [
              -109.83442504725323,
              -26.667193780661282
            ],
            [
              -109.86504684138289,
              -26.694555006285427
            ],
            [
              -109.89368545203439,
              -26.723573086419613
            ],
            [
              -109.92022785569525,
              -26.754132267996074
            ],
            [
              -109.94456930162427,
              -26.78611074316754
            ],
            [
              -109.96661372525492,
              -26.819381148929327
            ],
            [
              -109.98627412731825,
              -26.85381108798403
            ],
            [
              -110.00347291718934,
              -26.889263668507017
            ],
            [
              -110.01814221910195,
              -26.925598060410643
            ],
            [
              -110.03022414002312,
              -26.96267006565764
            ],
            [
              -110.03967099813076,
              -27.000332700140046
            ],
            [
              -110.04644551099176,
              -27.03843678462075
            ],
            [
              -110.05052094269884,
              -27.076831542228145
            ],
            [
              -110.0518812093849,
              -27.115365200000006
            ],
            [
              -110.05052094269884,
              -27.153885591992147
            ],
            [
              -110.04644551099176,
              -27.19224076149773
            ],
            [
              -110.03967099813076,
              -27.230279559965272
            ],
            [
              -110.03022414002312,
              -27.267852240254637
            ],
            [
              -110.01814221910195,
              -27.30481104193322
            ],
            [
              -110.00347291718934,
              -27.34101076638422
            ],
            [
              -109.98627412731825,
              -27.376309339577123
            ],
            [
              -109.96661372525492,
              -27.410568360436212
            ],
            [
              -109.94456930162427,
              -27.44365363283251
            ],
            [
              -109.92022785569525,
              -27.475435679322015
            ],
            [
              -109.89368545203439,
              -27.505790234851535
            ],
            [
              -109.86504684138289,
              -27.534598718756968
            ],
            [
              -109.83442504725323,
              -27.56174868348416
            ],
            [
              -109.80194091987708,
              -27.58713423856873
            ],
            [
              -109.76772265926459,
              -27.610656448519187
            ],
            [
              -109.7319053092576,
              -27.632223703354907
            ],
            [
              -109.69463022457317,
              -27.65175206065813
            ],
            [
              -109.6560445129412,
              -27.669165558105355
            ],
            [
              -109.61630045453734,
              -27.684396495548725
            ],
            [
              -109.57555490100279,
              -27.69738568582229
            ],
            [
              -109.5339686564225,
              -27.708082673549683
            ],
            [
              -109.49170584270483,
              -27.71644592133099
            ],
            [
              -109.44893325186754,
              -27.722442962784786
            ],
            [
              -109.4058196877857,
              -27.726050522020277
            ],
            [
              -109.36253530000002,
              -27.727254599208752
            ],
            [
              -109.31925091221432,
              -27.726050522020277
            ],
            [
              -109.27613734813248,
              -27.722442962784786
            ],
            [
              -109.23336475729518,
              -27.71644592133099
            ],
            [
              -109.19110194357752,
              -27.708082673549683
            ],
            [
              -109.14951569899722,
              -27.69738568582229
            ],
            [
              -109.10877014546266,
              -27.684396495548725
            ],
            [
              -109.06902608705882,
              -27.669165558105355
            ],
            [
              -109.03044037542683,
              -27.65175206065813
            ],
            [
              -108.99316529074243,
              -27.632223703354907
            ],
            [
              -108.95734794073542,
              -27.610656448519187
            ],
            [
              -108.92312968012294,
              -27.58713423856873
            ],
            [
              -108.89064555274679,
              -27.56174868348416
            ],
            [
              -108.86002375861712,
              -27.534598718756968
            ],
            [
              -108.83138514796563,
              -27.505790234851535
            ],
            [
              -108.80484274430478,
              -27.475435679322015
            ],
            [
              -108.78050129837575,
              -27.44365363283251
            ],
            [
              -108.75845687474511,
              -27.410568360436212
            ],
            [
              -108.73879647268177,
              -27.376309339577123
            ],
            [
              -108.72159768281067,
              -27.34101076638422
            ],
            [
              -108.70692838089808,
              -27.30481104193322
            ],
            [
              -108.69484645997689,
              -27.267852240254637
            ],
            [
              -108.68539960186924,
              -27.230279559965272
            ],
            [
              -108.67862508900825,
              -27.19224076149773
            ],
            [
              -108.67318939061511,
              -27.115365200000006
            ]
          ]
        ]
      }
    }
  ]
}
