{"type":"FeatureCollection","features":[{"type":"Feature","properties":{},"geometry":{"type":"Polygon","coordinates": [
          [
            [
              6.8056204903279,
              45.748466106619
            ],
            [
              6.8163461892763,
              45.739522550345
            ],
            [
              6.8111853327597,
              45.73065029663
            ],
            [
              6.8291131566154,
              45.702831040263
            ],
            [
              6.8416918546486,
              45.699758351852
            ],
            [
              6.8477523743945,
              45.689376465007
            ],
            [
              6.8685964773289,
              45.680965439806
            ],
            [
              6.8902954111672,
              45.677517341592
            ],
            [
              6.902535284798,
              45.680938868689
            ],
            [
              6.9065054377295,
              45.674559463369
            ],
            [
              6.9021374596942,
              45.663743226821
            ],
            [
              6.916286202296,
              45.660011360485
            ],
            [
              6.9171852994011,
              45.650736949397
            ],
            [
              6.9346140944773,
              45.647093928516
            ],
            [
              6.9666799933754,
              45.654063379324
            ],
            [
              6.9781568498682,
              45.645387517519
            ],
            [
              7.0006916861839,
              45.639899750138
            ],
            [
              7.0010463175509,
              45.634973208788
            ],
            [
              6.9860084427011,
              45.62249039449
            ],
            [
              6.9855421261112,
              45.611104948043
            ],
            [
              6.9778473846393,
              45.589884647121
            ],
            [
              6.9806967751279,
              45.583323625828
            ],
            [
              6.9953839096018,
              45.575637066048
            ],
            [
              6.9902484226223,
              45.561160964462
            ],
            [
              6.9945093026684,
              45.546677250256
            ],
            [
              6.9915104141831,
              45.531278684704
            ],
            [
              7.0038437540042,
              45.520940469575
            ],
            [
              7.0003315139353,
              45.504414498664
            ],
            [
              7.0224771388388,
              45.49654847936
            ],
            [
              7.0520544291456,
              45.496249516678
            ],
            [
              7.0563572963814,
              45.489623728606
            ],
            [
              7.0458504949934,
              45.478351199929
            ],
            [
              7.0542268132495,
              45.472184344708
            ],
            [
              7.0694234895786,
              45.473884402143
            ],
            [
              7.0997838903912,
              45.469437750641
            ],
            [
              7.1014832194722,
              45.453864029477
            ],
            [
              7.1146156812434,
              45.44172035079
            ],
            [
              7.1135165884052,
              45.434196485823
            ],
            [
              7.133848390776,
              45.426564709361
            ],
            [
              7.1475131268884,
              45.423992978267
            ],
            [
              7.1568873923079,
              45.417008078104
            ],
            [
              7.1842712160815,
              45.407484371382
            ],
            [
              7.17760043192,
              45.389026414715
            ],
            [
              7.1631811300703,
              45.381359810968
            ],
            [
              7.1588996003487,
              45.370751749811
            ],
            [
              7.1616596669718,
              45.362453596128
            ],
            [
              7.1528797089116,
              45.353816021836
            ],
            [
              7.1377390432018,
              45.350806280555
            ],
            [
              7.1321131760816,
              45.341125471296
            ],
            [
              7.1347132782574,
              45.331243465627
            ],
            [
              7.1263435309097,
              45.326945010527
            ],
            [
              7.1106925788126,
              45.326508796443
            ],
            [
              7.1123728281041,
              45.315170813723
            ],
            [
              7.1191793002337,
              45.306692568243
            ],
            [
              7.1229875004603,
              45.294328291286
            ],
            [
              7.136423190274,
              45.28079819697
            ],
            [
              7.1320835823333,
              45.266961258797
            ],
            [
              7.1375927179634,
              45.255692980709
            ],
            [
              7.1255846631745,
              45.244603122115
            ],
            [
              7.110603877569,
              45.246346626842
            ],
            [
              7.1065115700157,
              45.239258758095
            ],
            [
              7.0854359176976,
              45.225881604766
            ],
            [
              7.0796007060118,
              45.21424401107
            ],
            [
              7.0673372003279,
              45.210085201319
            ],
            [
              7.051179744193,
              45.225334821034
            ],
            [
              7.0427614515596,
              45.225313603097
            ],
            [
              7.030358820074,
              45.217845107982
            ],
            [
              7.0199925125511,
              45.215876575558
            ],
            [
              7.0003751823587,
              45.217602834471
            ],
            [
              6.989138474737,
              45.210260447293
            ],
            [
              6.9687620809781,
              45.208057678984
            ],
            [
              6.9538358712227,
              45.184628781446
            ],
            [
              6.954195544259,
              45.179612452986
            ],
            [
              6.9429030634006,
              45.176188730221
            ],
            [
              6.9430641979885,
              45.17091084008
            ],
            [
              6.9302666782212,
              45.170963141126
            ],
            [
              6.9069600182339,
              45.166613555832
            ],
            [
              6.8916010947342,
              45.167033325671
            ],
            [
              6.8858238474503,
              45.154195417179
            ],
            [
              6.8975633895087,
              45.143009081491
            ],
            [
              6.894376782376,
              45.137373356732
            ],
            [
              6.8747634572978,
              45.13563631718
            ],
            [
              6.8498552798828,
              45.127164544748
            ],
            [
              6.8422856917908,
              45.135528185554
            ],
            [
              6.8122710919045,
              45.148356968553
            ],
            [
              6.8013961759487,
              45.150083145112
            ],
            [
              6.7796480661915,
              45.158028591752
            ],
            [
              6.7679412928181,
              45.159739939943
            ],
            [
              6.7498942015229,
              45.142719026683
            ],
            [
              6.7392628844294,
              45.136771576844
            ],
            [
              6.7270392227155,
              45.138490660871
            ],
            [
              6.7121080083373,
              45.144648738816
            ],
            [
              6.6862136559676,
              45.139756066415
            ],
            [
              6.6800685047784,
              45.140123130573
            ],
            [
              6.6739820186998,
              45.129496472881
            ],
            [
              6.6657100684593,
              45.122605577556
            ],
            [
              6.6299923020059,
              45.109324963809
            ],
            [
              6.6155462835465,
              45.121477875934
            ],
            [
              6.5906851893034,
              45.119010630972
            ],
            [
              6.5765291374542,
              45.123092743765
            ],
            [
              6.5630788445458,
              45.11303936929
            ],
            [
              6.556730767951,
              45.104079390462
            ],
            [
              6.5297109874994,
              45.0985691169
            ],
            [
              6.5104239586159,
              45.108998029314
            ],
            [
              6.4995275838537,
              45.10159781596
            ],
            [
              6.4812555476638,
              45.094138953543
            ],
            [
              6.4893378703322,
              45.068353912844
            ],
            [
              6.4862360357216,
              45.056075754404
            ],
            [
              6.4728883939578,
              45.056011644618
            ],
            [
              6.4535295918669,
              45.051837207667
            ],
            [
              6.4433986588263,
              45.055077367768
            ],
            [
              6.4385899722107,
              45.06258734764
            ],
            [
              6.4002434258614,
              45.063261148419
            ],
            [
              6.3939107242634,
              45.0618177275
            ],
            [
              6.365073385182,
              45.071290490956
            ],
            [
              6.3735310876429,
              45.084151804143
            ],
            [
              6.3629265157708,
              45.104492035764
            ],
            [
              6.3344836229796,
              45.122836461323
            ],
            [
              6.3312951655489,
              45.118123866818
            ],
            [
              6.3019155994585,
              45.108954317068
            ],
            [
              6.2862810761543,
              45.110160822134
            ],
            [
              6.275502630793,
              45.115299423706
            ],
            [
              6.2605698000566,
              45.12684420383
            ],
            [
              6.2653779890371,
              45.139607411594
            ],
            [
              6.2489312476442,
              45.149662771802
            ],
            [
              6.2277116468863,
              45.142717265929
            ],
            [
              6.2183492305743,
              45.145333575225
            ],
            [
              6.2159372176736,
              45.152163633175
            ],
            [
              6.1892075903757,
              45.163730483941
            ],
            [
              6.1759369876508,
              45.162361766933
            ],
            [
              6.1690294070189,
              45.154126275916
            ],
            [
              6.1613170230868,
              45.151005539601
            ],
            [
              6.143792292215,
              45.154552997649
            ],
            [
              6.1619191434924,
              45.188405431434
            ],
            [
              6.1594722938627,
              45.202449604679
            ],
            [
              6.1378211482236,
              45.213333187699
            ],
            [
              6.1416935060053,
              45.22232847567
            ],
            [
              6.1272723570602,
              45.233317943724
            ],
            [
              6.1257002517953,
              45.244269262231
            ],
            [
              6.1385812548773,
              45.256050997267
            ],
            [
              6.1393900781341,
              45.266560839079
            ],
            [
              6.1325841534867,
              45.272593012456
            ],
            [
              6.1319486525639,
              45.288285309432
            ],
            [
              6.1417688736284,
              45.299001113002
            ],
            [
              6.1632323695733,
              45.312838044143
            ],
            [
              6.1844454256034,
              45.317952251676
            ],
            [
              6.1900932248736,
              45.342443964482
            ],
            [
              6.19476040795,
              45.352244568075
            ],
            [
              6.1803709629809,
              45.35492081739
            ],
            [
              6.1802922696297,
              45.360409426774
            ],
            [
              6.1916877134761,
              45.369022157094
            ],
            [
              6.1860529913803,
              45.374350928001
            ],
            [
              6.1774532351909,
              45.393156916781
            ],
            [
              6.154793328964,
              45.409336349236
            ],
            [
              6.1436456530595,
              45.414580875157
            ],
            [
              6.1324998100528,
              45.433380436097
            ],
            [
              6.1212683533751,
              45.438895252904
            ],
            [
              6.0974519491338,
              45.432105098885
            ],
            [
              6.0909753082569,
              45.444016847857
            ],
            [
              6.0658423549871,
              45.444139208117
            ],
            [
              6.0497526230096,
              45.437920464227
            ],
            [
              6.0085163401932,
              45.453848085956
            ],
            [
              6.0109047885983,
              45.47320486613
            ],
            [
              5.9893333893021,
              45.476074199105
            ],
            [
              5.9821187808525,
              45.487027235821
            ],
            [
              5.9661721637538,
              45.492307753934
            ],
            [
              5.9533584581804,
              45.484809788706
            ],
            [
              5.9164085799586,
              45.47667987803
            ],
            [
              5.9254150387228,
              45.464593457788
            ],
            [
              5.9149042257548,
              45.436653554682
            ],
            [
              5.904472446297,
              45.432574848416
            ],
            [
              5.9016155577899,
              45.418032646134
            ],
            [
              5.9090423346643,
              45.408294208274
            ],
            [
              5.9226358813528,
              45.416818739345
            ],
            [
              5.9281112911718,
              45.415471973855
            ],
            [
              5.9149860828604,
              45.401349288339
            ],
            [
              5.909612774011,
              45.390400457607
            ],
            [
              5.8910055457909,
              45.392211292218
            ],
            [
              5.8917060274354,
              45.398132080514
            ],
            [
              5.8797333382597,
              45.406797743306
            ],
            [
              5.8607139660775,
              45.40924651344
            ],
            [
              5.8542752462907,
              45.4165640969
            ],
            [
              5.8232128524879,
              45.421771370243
            ],
            [
              5.8074478270167,
              45.426270640914
            ],
            [
              5.7979610020218,
              45.437123711786
            ],
            [
              5.7820850307141,
              45.440656144128
            ],
            [
              5.7634821589831,
              45.439042972367
            ],
            [
              5.7597939416716,
              45.435261281179
            ],
            [
              5.7400977980128,
              45.437349988759
            ],
            [
              5.7322100567066,
              45.453663170363
            ],
            [
              5.7363772302151,
              45.472535799856
            ],
            [
              5.7190481261138,
              45.484227733066
            ],
            [
              5.7125099215192,
              45.505293631893
            ],
            [
              5.70267342317,
              45.511196354762
            ],
            [
              5.7011064065529,
              45.517546444671
            ],
            [
              5.6912470759998,
              45.521805232869
            ],
            [
              5.6901528196542,
              45.52805100678
            ],
            [
              5.6768487183882,
              45.530475432419
            ],
            [
              5.6717082687622,
              45.536571381592
            ],
            [
              5.6803575756273,
              45.545047248369
            ],
            [
              5.6695358905937,
              45.563199459718
            ],
            [
              5.654825526768,
              45.570120639284
            ],
            [
              5.6470817885996,
              45.57674261279
            ],
            [
              5.6430941654947,
              45.585618310022
            ],
            [
              5.6230208703548,
              45.604282743022
            ],
            [
              5.62374290574,
              45.613268446443
            ],
            [
              5.6316405396857,
              45.611235124481
            ],
            [
              5.63695250778,
              45.621748588886
            ],
            [
              5.6477926027919,
              45.625976358255
            ],
            [
              5.6494123534067,
              45.633717345947
            ],
            [
              5.6595309557102,
              45.638684549186
            ],
            [
              5.6781236866235,
              45.638357085735
            ],
            [
              5.6891819695463,
              45.648501735062
            ],
            [
              5.6836656752065,
              45.661963741678
            ],
            [
              5.6870609549933,
              45.668165449596
            ],
            [
              5.7083299077507,
              45.683061321171
            ],
            [
              5.7095817238803,
              45.688831038827
            ],
            [
              5.7010131804821,
              45.702100635418
            ],
            [
              5.7041230572664,
              45.71092263715
            ],
            [
              5.731324731181,
              45.710147544457
            ],
            [
              5.7487624468829,
              45.705295781585
            ],
            [
              5.7566806620664,
              45.708732566891
            ],
            [
              5.7647990972785,
              45.720294878543
            ],
            [
              5.7761557592359,
              45.729222522213
            ],
            [
              5.769838038757,
              45.741303252362
            ],
            [
              5.7819015428617,
              45.743102925582
            ],
            [
              5.78384046603,
              45.751243783283
            ],
            [
              5.7810286020002,
              45.764959536359
            ],
            [
              5.7868561787325,
              45.822955096586
            ],
            [
              5.7972199717522,
              45.831056078142
            ],
            [
              5.8036631085125,
              45.8555780918
            ],
            [
              5.8110472403323,
              45.86737240276
            ],
            [
              5.8285400922457,
              45.909292435972
            ],
            [
              5.8280692455776,
              45.920463972756
            ],
            [
              5.8228776189031,
              45.931847125431
            ],
            [
              5.8312301905898,
              45.93845768164
            ],
            [
              5.8348857517832,
              45.952142646336
            ],
            [
              5.8340245954563,
              45.972027470458
            ],
            [
              5.8096421985755,
              45.989802335637
            ],
            [
              5.8108134884026,
              46.010299483158
            ],
            [
              5.8081197991624,
              46.017745086291
            ],
            [
              5.810562662367,
              46.02975964769
            ],
            [
              5.8074048290847,
              46.045210926206
            ],
            [
              5.81359839149,
              46.05821377467
            ],
            [
              5.8076225368064,
              46.063936778242
            ],
            [
              5.8114122153566,
              46.078423852566
            ],
            [
              5.8222056291049,
              46.090775206158
            ],
            [
              5.8239656351235,
              46.103644576638
            ],
            [
              5.8323048867913,
              46.105997561521
            ],
            [
              5.8556665715056,
              46.086765119478
            ],
            [
              5.8831800937075,
              46.084913020889
            ],
            [
              5.8914369022611,
              46.088481128574
            ],
            [
              5.8929021260405,
              46.099062263942
            ],
            [
              5.8853202303568,
              46.107902197456
            ],
            [
              5.894036131075,
              46.119471054626
            ],
            [
              5.9063997635853,
              46.122367542906
            ],
            [
              5.9222720779069,
              46.131479275113
            ],
            [
              5.9462067394343,
              46.127948221814
            ],
            [
              5.9560670913359,
              46.132090234706
            ],
            [
              5.9738400143027,
              46.131738683687
            ],
            [
              5.985316810497,
              46.143308955951
            ],
            [
              6.0154641822919,
              46.14263396477
            ],
            [
              6.0325422068392,
              46.138442041928
            ],
            [
              6.0455233066288,
              46.139907692935
            ],
            [
              6.0520405063454,
              46.151402707103
            ],
            [
              6.0749307059736,
              46.148890032198
            ],
            [
              6.0924619318286,
              46.151762719587
            ],
            [
              6.0992749757816,
              46.144011566226
            ],
            [
              6.1212014573294,
              46.142667449845
            ],
            [
              6.1266206934256,
              46.140460017961
            ],
            [
              6.1449190514584,
              46.144832823407
            ],
            [
              6.1521154179752,
              46.151723946513
            ],
            [
              6.1750725341517,
              46.158152598893
            ],
            [
              6.1882037288084,
              46.168463284904
            ],
            [
              6.1859715813532,
              46.17817796673
            ],
            [
              6.2142469629058,
              46.193786616278
            ],
            [
              6.2320741324515,
              46.205470235677
            ],
            [
              6.2517782250825,
              46.207041486005
            ],
            [
              6.2773739792759,
              46.215611853153
            ],
            [
              6.2956514854587,
              46.226054581929
            ],
            [
              6.3101113416345,
              46.243699660222
            ],
            [
              6.3085403196879,
              46.255105885559
            ],
            [
              6.2846173713146,
              46.255153793328
            ],
            [
              6.2676297299719,
              46.247839951429
            ],
            [
              6.2489222724698,
              46.263081361726
            ],
            [
              6.2377992707926,
              46.27733692078
            ],
            [
              6.2416291134625,
              46.284546843215
            ],
            [
              6.2510763599071,
              46.287643543433
            ],
            [
              6.2479330373852,
              46.306039208714
            ],
            [
              6.2579242025762,
              46.321777857151
            ],
            [
              6.2799144692268,
              46.351093458251
            ],
            [
              6.2941843558993,
              46.360850723006
            ],
            [
              6.3151995925349,
              46.368778204186
            ],
            [
              6.3269980708935,
              46.371129282074
            ],
            [
              6.3446806034485,
              46.370015245292
            ],
            [
              6.3622839851983,
              46.347951295821
            ],
            [
              6.3900333913921,
              46.340163012448
            ],
            [
              6.3983362100039,
              46.349291951337
            ],
            [
              6.4115883259384,
              46.358394900258
            ],
            [
              6.4285826466732,
              46.359525351148
            ],
            [
              6.4690640820175,
              46.372614566115
            ],
            [
              6.4803914973041,
              46.379314208071
            ],
            [
              6.4828511368319,
              46.391927295245
            ],
            [
              6.4923970036831,
              46.398425207982
            ],
            [
              6.5090399003785,
              46.404031878903
            ],
            [
              6.5205788239548,
              46.404192806741
            ],
            [
              6.5451764296884,
              46.394724620294
            ],
            [
              6.5635602532757,
              46.398365633599
            ],
            [
              6.6350579346881,
              46.405772458657
            ],
            [
              6.6573993573272,
              46.404992488925
            ],
            [
              6.6926864378952,
              46.408081546332
            ],
            [
              6.7228648390107,
              46.407550427288
            ],
            [
              6.7575049437368,
              46.402602205639
            ],
            [
              6.7602536639409,
              46.400376898866
            ],
            [
              6.7956711769373,
              46.393088744604
            ],
            [
              6.8048287544258,
              46.393585002703
            ],
            [
              6.8062164014005,
              46.380373005422
            ],
            [
              6.7939579093873,
              46.368622978764
            ],
            [
              6.7725993243998,
              46.361732287023
            ],
            [
              6.770609037987,
              46.35489449301
            ],
            [
              6.7826406405392,
              46.336879446577
            ],
            [
              6.7981214712964,
              46.330137581736
            ],
            [
              6.7999297623371,
              46.320468909994
            ],
            [
              6.8066438150253,
              46.320654870777
            ],
            [
              6.8256057085651,
              46.310849078308
            ],
            [
              6.8373080183838,
              46.2966869808
            ],
            [
              6.8498971155566,
              46.290147597499
            ],
            [
              6.8589051093538,
              46.29059983934
            ],
            [
              6.8645108313675,
              46.282986228855
            ],
            [
              6.8538982253794,
              46.253760812247
            ],
            [
              6.8434127149042,
              46.248726167204
            ],
            [
              6.8337455798703,
              46.237035791813
            ],
            [
              6.8216770780521,
              46.227691939843
            ],
            [
              6.8036633001539,
              46.204343363963
            ],
            [
              6.811228200568,
              46.185029674216
            ],
            [
              6.8042020707473,
              46.172106439303
            ],
            [
              6.7919797022783,
              46.162225177301
            ],
            [
              6.7903942029832,
              46.154717927724
            ],
            [
              6.7985330883924,
              46.136103390553
            ],
            [
              6.8147295130574,
              46.129695648917
            ],
            [
              6.8355075060867,
              46.132440109797
            ],
            [
              6.8517868611599,
              46.126417177303
            ],
            [
              6.889761788112,
              46.124847684892
            ],
            [
              6.8983839799267,
              46.122561981532
            ],
            [
              6.892714778239,
              46.104316525882
            ],
            [
              6.8838438298784,
              46.095796864191
            ],
            [
              6.8914506010215,
              46.084495302772
            ],
            [
              6.8900687536716,
              46.076513214339
            ],
            [
              6.8798946308492,
              46.067793789027
            ],
            [
              6.8726328572469,
              46.052044575345
            ],
            [
              6.8883272243818,
              46.043120600357
            ],
            [
              6.9085295179521,
              46.050234188897
            ],
            [
              6.9245114290077,
              46.065194793319
            ],
            [
              6.93736936958,
              46.06456312426
            ],
            [
              6.9357975763722,
              46.0551192491
            ],
            [
              6.9515100788266,
              46.049953446394
            ],
            [
              6.9629078952786,
              46.030531973099
            ],
            [
              6.9786083663027,
              46.021144644415
            ],
            [
              6.9846771340211,
              46.006542009406
            ],
            [
              6.9947247398586,
              46.000742003948
            ],
            [
              7.0036316590852,
              46.000553586437
            ],
            [
              7.0182519988272,
              45.984185305283
            ],
            [
              7.0182419263004,
              45.975567599113
            ],
            [
              7.00940894593,
              45.9697604902
            ],
            [
              7.0179746222284,
              45.960347157061
            ],
            [
              7.037615499193,
              45.95430091758
            ],
            [
              7.0371021493003,
              45.941929380484
            ],
            [
              7.0438913499404,
              45.922087093613
            ],
            [
              7.0218109199059,
              45.916452271309
            ],
            [
              7.0031479175286,
              45.89782755209
            ],
            [
              7.0033187238325,
              45.882408678251
            ],
            [
              6.9917249963735,
              45.868198790757
            ],
            [
              6.9716946211702,
              45.867044015003
            ],
            [
              6.9510356268261,
              45.859535060133
            ],
            [
              6.93960886416,
              45.846732871084
            ],
            [
              6.9230835545726,
              45.847274071201
            ],
            [
              6.9092120399646,
              45.842522379483
            ],
            [
              6.895098526216,
              45.842600014196
            ],
            [
              6.8821969778683,
              45.849520488181
            ],
            [
              6.873610959862,
              45.845496843566
            ],
            [
              6.8698438889527,
              45.825642650285
            ],
            [
              6.8538394187733,
              45.837147031314
            ],
            [
              6.8379652390991,
              45.839496400234
            ],
            [
              6.8180784499339,
              45.834974269868
            ],
            [
              6.8142564432708,
              45.826836338335
            ],
            [
              6.8039854950068,
              45.815846165391
            ],
            [
              6.8127223620905,
              45.80801890935
            ],
            [
              6.8115834715922,
              45.798399188776
            ],
            [
              6.8039839343781,
              45.789307695607
            ],
            [
              6.8025153780901,
              45.778372017386
            ],
            [
              6.8056204903279,
              45.748466106619
            ]
          ]
        ]
      },
      "properties": {
        "code": "",
        "nom": ""
      }
    }
  ]
}
