{"type":"FeatureCollection","features":[{"type":"Feature","properties":{"@circle":{"type":"Mercator","center":[-6.3320629,49.9298887]}},"geometry":{"type":"Polygon","coordinates":[[[-6.332063,49.929889],[-6.332063,49.929889],[-6.332063,49.929889],[-6.332063,49.929889]]]}},{"type":"Feature","properties":{"@circle":{"type":"Mercator","center":[-6.3263999,49.9332387]}},"geometry":{"type":"Polygon","coordinates":[[[-6.3264,49.933239],[-6.3264,49.933239],[-6.3264,49.933239],[-6.3264,49.933239]]]}},{"type":"Feature","properties":{"@circle":{"type":"Mercator","center":[-6.3271016,49.9321688]}},"geometry":{"type":"Polygon","coordinates":[[[-5.922859,49.932169],[-5.923657,49.948505],[-5.926047,49.964771],[-5.93002,49.980902],[-5.935559,49.996837],[-5.942644,50.012511],[-5.951247,50.027863],[-5.961332,50.042833],[-5.972861,50.057362],[-5.985789,50.071394],[-6.000063,50.084873],[-6.015628,50.097747],[-6.032422,50.109965],[-6.050379,50.121479],[-6.069428,50.132246],[-6.089494,50.142222],[-6.110498,50.151369],[-6.132356,50.159652],[-6.154984,50.167038],[-6.17829,50.173497],[-6.202184,50.179007],[-6.226571,50.183544],[-6.251354,50.187091],[-6.276437,50.189634],[-6.301719,50.191164],[-6.327102,50.191675],[-6.352484,50.191164],[-6.377767,50.189634],[-6.402849,50.187091],[-6.427633,50.183544],[-6.452019,50.179007],[-6.475913,50.173497],[-6.49922,50.167038],[-6.521847,50.159652],[-6.543705,50.151369],[-6.564709,50.142222],[-6.584775,50.132246],[-6.603824,50.121479],[-6.621782,50.109965],[-6.638576,50.097747],[-6.65414,50.084873],[-6.668415,50.071394],[-6.681342,50.057362],[-6.692871,50.042833],[-6.702957,50.027863],[-6.711559,50.012511],[-6.718644,49.996837],[-6.724184,49.980902],[-6.728156,49.964771],[-6.730546,49.948505],[-6.731344,49.932169],[-6.730546,49.915827],[-6.728156,49.899545],[-6.724184,49.883386],[-6.718644,49.867414],[-6.711559,49.851693],[-6.702957,49.836285],[-6.692871,49.82125],[-6.681342,49.806649],[-6.668415,49.79254],[-6.65414,49.778979],[-6.638576,49.76602],[-6.621782,49.753715],[-6.603824,49.742112],[-6.584775,49.731258],[-6.564709,49.721196],[-6.543705,49.711967],[-6.521847,49.703607],[-6.49922,49.69615],[-6.475913,49.689626],[-6.452019,49.68406],[-6.427633,49.679476],[-6.402849,49.675891],[-6.377767,49.67332],[-6.352484,49.671774],[-6.327102,49.671258],[-6.301719,49.671774],[-6.276437,49.67332],[-6.251354,49.675891],[-6.226571,49.679476],[-6.202184,49.68406],[-6.17829,49.689626],[-6.154984,49.69615],[-6.132356,49.703607],[-6.110498,49.711967],[-6.089494,49.721196],[-6.069428,49.731258],[-6.050379,49.742112],[-6.032422,49.753715],[-6.015628,49.76602],[-6.000063,49.778979],[-5.985789,49.79254],[-5.972861,49.806649],[-5.961332,49.82125],[-5.951247,49.836285],[-5.942644,49.851693],[-5.935559,49.867414],[-5.93002,49.883386],[-5.926047,49.899545],[-5.922859,49.932169]]]}}]}