{"type":"FeatureCollection","features":[{"type":"Feature","properties":{"id":"strandzha_bg_core","name":"Strandzha","name_bg":"Странджа","status":"draft-core","included_municipalities":["Malko Tarnovo","Tsarevo"],"note":"Conservative core for review; Sredets/Primorsko partial areas not yet added."},"geometry":{"type":"Polygon","coordinates":[[[27.273,42.099],[27.273,42.102],[27.275,42.102],[27.287,42.118],[27.287,42.143],[27.274,42.153],[27.273,42.176],[27.256,42.186],[27.263,42.201],[27.294,42.2],[27.332,42.199],[27.333,42.199],[27.343,42.192],[27.364,42.203],[27.396,42.191],[27.397,42.191],[27.467,42.182],[27.482,42.188],[27.495,42.18],[27.501,42.183],[27.529,42.177],[27.558,42.154],[27.558,42.155],[27.559,42.154],[27.56,42.153],[27.566,42.151],[27.591,42.187],[27.592,42.187],[27.599,42.19],[27.624,42.175],[27.641,42.168],[27.663,42.186],[27.691,42.192],[27.706,42.22],[27.716,42.224],[27.748,42.219],[27.778,42.226],[27.803,42.215],[27.81,42.21],[27.815,42.209],[27.818,42.203],[27.818,42.202],[27.829,42.194],[27.845,42.18],[27.853,42.173],[27.856,42.174],[27.857,42.174],[27.858,42.174],[27.859,42.173],[27.859,42.171],[27.857,42.171],[27.864,42.162],[27.874,42.161],[27.874,42.16],[27.874,42.157],[27.874,42.156],[27.876,42.156],[27.877,42.156],[27.878,42.155],[27.885,42.144],[27.898,42.14],[27.9,42.138],[27.899,42.138],[27.904,42.129],[27.908,42.129],[27.909,42.129],[27.91,42.128],[27.913,42.122],[27.913,42.121],[27.923,42.105],[27.946,42.104],[27.947,42.102],[27.948,42.101],[27.945,42.1],[27.949,42.097],[27.95,42.096],[27.955,42.091],[27.956,42.091],[27.956,42.089],[27.957,42.086],[27.959,42.085],[27.963,42.08],[27.963,42.079],[27.969,42.073],[27.969,42.072],[27.969,42.07],[27.99,42.063],[27.991,42.063],[27.991,42.062],[27.991,42.051],[27.99,42.051],[27.993,42.046],[27.994,42.046],[28.001,42.042],[28.002,42.042],[28.003,42.042],[28.004,42.042],[28.004,42.04],[28.005,42.039],[28.004,42.039],[28.004,42.038],[28.005,42.038],[28.006,42.034],[28.006,42.033],[28.009,42.033],[28.011,42.031],[28.013,42.028],[28.014,42.028],[28.014,42.027],[28.015,42.027],[28.017,42.017],[28.018,42.016],[28.018,42.013],[28.018,42.012],[28.018,42.011],[28.019,42.011],[28.019,42.01],[28.02,42.009],[28.019,42.007],[28.02,42.007],[28.022,42.004],[28.035,41.983],[27.929,41.977],[27.922,41.983],[27.86,42.006],[27.859,42.004],[27.828,41.998],[27.814,41.954],[27.785,41.964],[27.695,41.978],[27.682,41.964],[27.638,41.959],[27.611,41.938],[27.574,41.937],[27.565,41.919],[27.54,41.916],[27.531,41.934],[27.502,41.954],[27.446,41.968],[27.433,41.991],[27.432,41.991],[27.394,42.005],[27.364,42.058],[27.329,42.072],[27.326,42.08],[27.274,42.099],[27.273,42.099]]]}}]}