{"type":"FeatureCollection","features":[{"type":"Feature","properties":{"@circle":{"type":"Mercator","center":[-174.9435456,-19.8159151]}},"geometry":{"type":"Polygon","coordinates":[[[-173.171853,-19.815915],[-173.175349,-19.711222],[-173.185823,-19.606875],[-173.203234,-19.503285],[-173.227514,-19.400865],[-173.258565,-19.300022],[-173.296267,-19.201157],[-173.34047,-19.104665],[-173.390999,-19.010931],[-173.447656,-18.920331],[-173.510216,-18.833227],[-173.578433,-18.74997],[-173.652037,-18.670895],[-173.730738,-18.596319],[-173.814226,-18.526543],[-173.902171,-18.461849],[-173.994225,-18.402499],[-174.090026,-18.348731],[-174.189195,-18.300764],[-174.291342,-18.258792],[-174.396062,-18.222985],[-174.502943,-18.193488],[-174.611563,-18.170421],[-174.721494,-18.153877],[-174.8323,-18.143924],[-174.943546,-18.140602],[-175.054791,-18.143924],[-175.165598,-18.153877],[-175.275528,-18.170421],[-175.384148,-18.193488],[-175.491029,-18.222985],[-175.595749,-18.258792],[-175.697896,-18.300764],[-175.797065,-18.348731],[-175.892866,-18.402499],[-175.984921,-18.461849],[-176.072865,-18.526543],[-176.156353,-18.596319],[-176.235054,-18.670895],[-176.308658,-18.74997],[-176.376875,-18.833227],[-176.439435,-18.920331],[-176.496092,-19.010931],[-176.546621,-19.104665],[-176.590824,-19.201157],[-176.628526,-19.300022],[-176.659578,-19.400865],[-176.683857,-19.503285],[-176.701268,-19.606875],[-176.711743,-19.711222],[-176.715239,-19.815915],[-176.711743,-19.920539],[-176.701268,-20.024681],[-176.683857,-20.127931],[-176.659578,-20.229884],[-176.628526,-20.33014],[-176.590824,-20.428306],[-176.546621,-20.523998],[-176.496092,-20.616845],[-176.439435,-20.706484],[-176.376875,-20.792567],[-176.308658,-20.874762],[-176.235054,-20.952749],[-176.156353,-21.026228],[-176.072865,-21.094916],[-175.984921,-21.158548],[-175.892866,-21.216879],[-175.797065,-21.269686],[-175.697896,-21.316766],[-175.595749,-21.357938],[-175.491029,-21.393047],[-175.384148,-21.421956],[-175.275528,-21.444556],[-175.165598,-21.460761],[-175.054791,-21.470509],[-174.943546,-21.473763],[-174.8323,-21.470509],[-174.721494,-21.460761],[-174.611563,-21.444556],[-174.502943,-21.421956],[-174.396062,-21.393047],[-174.291342,-21.357938],[-174.189195,-21.316766],[-174.090026,-21.269686],[-173.994225,-21.216879],[-173.902171,-21.158548],[-173.814226,-21.094916],[-173.730738,-21.026228],[-173.652037,-20.952749],[-173.578433,-20.874762],[-173.510216,-20.792567],[-173.447656,-20.706484],[-173.390999,-20.616845],[-173.34047,-20.523998],[-173.296267,-20.428306],[-173.258565,-20.33014],[-173.227514,-20.229884],[-173.203234,-20.127931],[-173.185823,-20.024681],[-173.171853,-19.815915]]]}}]}