{
  "type": "FeatureCollection",
  "features": [
    {
      "type": "Feature",
      "properties": {},
      "geometry": {
        "type": "Polygon",
        "coordinates": [
          [
            [
              6.8091076,
              46.4020337
            ],
            [
              6.8590469,
              46.3960307
            ],
            [
              6.875778,
              46.3814129
            ],
            [
              6.8860656,
              46.3755773
            ],
            [
              6.8862942,
              46.3657975
            ],
            [
              6.8833222,
              46.3596447
            ],
            [
              6.8805789,
              46.3538068
            ],
            [
              6.88698,
              46.349862
            ],
            [
              6.8961245,
              46.3394462
            ],
            [
              6.9089268,
              46.338657
            ],
            [
              6.9203574,
              46.3391305
            ],
            [
              6.9299591,
              46.3298385
            ],
            [
              6.9338455,
              46.3232081
            ],
            [
              6.9320166,
              46.3173663
            ],
            [
              6.9347599,
              46.3080498
            ],
            [
              6.9356744,
              46.3001532
            ],
            [
              6.9379605,
              46.2963624
            ],
            [
              6.9567067,
              46.2875162
            ],
            [
              6.9605931,
              46.2832506
            ],
            [
              6.9651653,
              46.2695035
            ],
            [
              6.9779675,
              46.2578079
            ],
            [
              6.9875692,
              46.2524334
            ],
            [
              6.9893981,
              46.2451611
            ],
            [
              6.9935131,
              46.2397854
            ],
            [
              6.9978567,
              46.236623
            ],
            [
              7.002429,
              46.2347254
            ],
            [
              7.0022004,
              46.230772
            ],
            [
              7.002429,
              46.225553
            ],
            [
              7.0078055,
              46.2221505
            ],
            [
              7.0121492,
              46.2055403
            ],
            [
              7.0212936,
              46.2019012
            ],
            [
              7.0256373,
              46.1973124
            ],
            [
              7.0295237,
              46.1909825
            ],
            [
              7.0338673,
              46.1867093
            ],
            [
              7.0468982,
              46.1917737
            ],
            [
              7.0567285,
              46.1962047
            ],
            [
              7.0702166,
              46.2015847
            ],
            [
              7.0786753,
              46.2000024
            ],
            [
              7.0905631,
              46.2020594
            ],
            [
              7.0960498,
              46.2080717
            ],
            [
              7.1135705,
              46.2160251
            ],
            [
              7.1185999,
              46.2228267
            ],
            [
              7.122715,
              46.2239339
            ],
            [
              7.1204288,
              46.2269389
            ],
            [
              7.1256869,
              46.2370599
            ],
            [
              7.1407753,
              46.2361111
            ],
            [
              7.1460334,
              46.2424359
            ],
            [
              7.1499198,
              46.244017
            ],
            [
              7.1558637,
              46.2535025
            ],
            [
              7.1617485,
              46.2536321
            ],
            [
              7.179123,
              46.2694376
            ],
            [
              7.1868958,
              46.2699117
            ],
            [
              7.1878103,
              46.2776547
            ],
            [
              7.1855242,
              46.2825527
            ],
            [
              7.1946687,
              46.2857125
            ],
            [
              7.1946687,
              46.2891881
            ],
            [
              7.1964976,
              46.289662
            ],
            [
              7.1896392,
              46.2953488
            ],
            [
              7.1887247,
              46.3051412
            ],
            [
              7.222788,
              46.3294569
            ],
            [
              7.2333467,
              46.3269345
            ],
            [
              7.2454632,
              46.3283553
            ],
            [
              7.2509499,
              46.3305653
            ],
            [
              7.2518643,
              46.3300918
            ],
            [
              7.2635235,
              46.3387732
            ],
            [
              7.2607802,
              46.3572365
            ],
            [
              7.2916428,
              46.3673334
            ],
            [
              7.2989584,
              46.3657559
            ],
            [
              7.3087887,
              46.3747471
            ],
            [
              7.3118295,
              46.3633058
            ],
            [
              7.3093835,
              46.3593341
            ],
            [
              7.3078009,
              46.3580432
            ],
            [
              7.3103907,
              46.35566
            ],
            [
              7.3075131,
              46.3511912
            ],
            [
              7.3152826,
              46.344239
            ],
            [
              7.3502454,
              46.3509926
            ],
            [
              7.372887,
              46.3607761
            ],
            [
              7.3956369,
              46.375047
            ],
            [
              7.4001869,
              46.3764739
            ],
            [
              7.4003937,
              46.3747616
            ],
            [
              7.4266595,
              46.3810397
            ],
            [
              7.437414,
              46.3861757
            ],
            [
              7.4425844,
              46.3837505
            ],
            [
              7.4556139,
              46.3821811
            ],
            [
              7.4583025,
              46.380041
            ],
            [
              7.458923,
              46.3783288
            ],
            [
              7.462232,
              46.3767593
            ],
            [
              7.4694707,
              46.3786142
            ],
            [
              7.4725729,
              46.3816104
            ],
            [
              7.4729865,
              46.3838931
            ],
            [
              7.4808456,
              46.3847491
            ],
            [
              7.4868433,
              46.3744763
            ],
            [
              7.484982,
              46.3719077
            ],
            [
              7.4903592,
              46.3706234
            ],
            [
              7.495116,
              46.3723358
            ],
            [
              7.5009069,
              46.3691964
            ],
            [
              7.5060773,
              46.3739055
            ],
            [
              7.5058705,
              46.3763312
            ],
            [
              7.5252571,
              46.3746398
            ],
            [
              7.5397343,
              46.3774936
            ],
            [
              7.5405616,
              46.3841993
            ],
            [
              7.5560729,
              46.3886218
            ],
            [
              7.5279443,
              46.399835
            ],
            [
              7.5324942,
              46.4082492
            ],
            [
              7.5835781,
              46.4173751
            ],
            [
              7.5951599,
              46.4116716
            ],
            [
              7.6002288,
              46.4167993
            ],
            [
              7.5984653,
              46.4211219
            ],
            [
              7.5998369,
              46.4234182
            ],
            [
              7.603168,
              46.423013
            ],
            [
              7.6108099,
              46.4286857
            ],
            [
              7.6094383,
              46.4354381
            ],
            [
              7.6145329,
              46.4380039
            ],
            [
              7.61806,
              46.4378688
            ],
            [
              7.6260938,
              46.4442151
            ],
            [
              7.6934994,
              46.4246338
            ],
            [
              7.7025129,
              46.4170695
            ],
            [
              7.7068237,
              46.4151783
            ],
            [
              7.7154454,
              46.4150432
            ],
            [
              7.7229845,
              46.4211373
            ],
            [
              7.7359169,
              46.4234335
            ],
            [
              7.7655014,
              46.4395447
            ],
            [
              7.7777225,
              46.4434977
            ],
            [
              7.7869507,
              46.4514886
            ],
            [
              7.8008827,
              46.4597305
            ],
            [
              7.8177341,
              46.4651295
            ],
            [
              7.8259639,
              46.4674239
            ],
            [
              7.8273355,
              46.470123
            ],
            [
              7.8477139,
              46.4790293
            ],
            [
              7.8518288,
              46.4770053
            ],
            [
              7.8860741,
              46.4818942
            ],
            [
              7.8903911,
              46.4840561
            ],
            [
              7.8974552,
              46.4829751
            ],
            [
              7.9088363,
              46.4875689
            ],
            [
              7.9135458,
              46.4870285
            ],
            [
              7.9202175,
              46.4935131
            ],
            [
              7.9261042,
              46.4951342
            ],
            [
              7.9308137,
              46.5010776
            ],
            [
              7.9476891,
              46.5097215
            ],
            [
              7.9622099,
              46.5099916
            ],
            [
              7.9684891,
              46.5151232
            ],
            [
              7.9716288,
              46.5234947
            ],
            [
              7.961425,
              46.5378044
            ],
            [
              7.9696665,
              46.5459026
            ],
            [
              7.9857571,
              46.5475221
            ],
            [
              7.9959607,
              46.5604763
            ],
            [
              8.00224,
              46.559127
            ],
            [
              8.0132286,
              46.564254
            ],
            [
              8.030889,
              46.562635
            ],
            [
              8.0410928,
              46.5575079
            ],
            [
              8.0552211,
              46.5564284
            ],
            [
              8.0599305,
              46.5521104
            ],
            [
              8.0662097,
              46.5531899
            ],
            [
              8.0756286,
              46.5553489
            ],
            [
              8.1117343,
              46.5469823
            ],
            [
              8.1397251,
              46.534565
            ],
            [
              8.1632722,
              46.5318652
            ],
            [
              8.1770081,
              46.5318652
            ],
            [
              8.1746534,
              46.5237649
            ],
            [
              8.1860345,
              46.5194443
            ],
            [
              8.2103666,
              46.5240349
            ],
            [
              8.2237104,
              46.5267352
            ],
            [
              8.2609934,
              46.5297053
            ],
            [
              8.2759066,
              46.5364548
            ],
            [
              8.2829707,
              46.5372647
            ],
            [
              8.2872877,
              46.5434735
            ],
            [
              8.3029858,
              46.5440133
            ],
            [
              8.3202537,
              46.5604764
            ],
            [
              8.3371292,
              46.5620955
            ],
            [
              8.350865,
              46.567492
            ],
            [
              8.3516499,
              46.5736973
            ],
            [
              8.3665631,
              46.5834085
            ],
            [
              8.3587141,
              46.5863755
            ],
            [
              8.3646535,
              46.6029181
            ],
            [
              8.3677932,
              46.6107369
            ],
            [
              8.3697554,
              46.6180156
            ],
            [
              8.3677932,
              46.6242151
            ],
            [
              8.37368,
              46.6344562
            ],
            [
              8.3783894,
              46.6347257
            ],
            [
              8.3893781,
              46.6457731
            ],
            [
              8.3940875,
              46.6465813
            ],
            [
              8.3964422,
              46.6549326
            ],
            [
              8.418812,
              46.6525082
            ],
            [
              8.4215592,
              46.6498142
            ],
            [
              8.4184196,
              46.6341867
            ],
            [
              8.4223441,
              46.6258322
            ],
            [
              8.4207743,
              46.6169373
            ],
            [
              8.4156724,
              46.6099282
            ],
            [
              8.4176347,
              46.6080409
            ],
            [
              8.4070384,
              46.6015699
            ],
            [
              8.4105705,
              46.5967161
            ],
            [
              8.4058611,
              46.5845798
            ],
            [
              8.418812,
              46.5683939
            ],
            [
              8.423129,
              46.5600292
            ],
            [
              8.427446,
              46.5443757
            ],
            [
              8.4345101,
              46.5392469
            ],
            [
              8.4568799,
              46.5333077
            ],
            [
              8.464729,
              46.5354675
            ],
            [
              8.4757177,
              46.5281778
            ],
            [
              8.4775707,
              46.524425
            ],
            [
              8.4580366,
              46.5081738
            ],
            [
              8.4507478,
              46.5073711
            ],
            [
              8.4431674,
              46.4949285
            ],
            [
              8.4323799,
              46.4977383
            ],
            [
              8.4183853,
              46.4915163
            ],
            [
              8.4125542,
              46.4951292
            ],
            [
              8.4091274,
              46.4925446
            ],
            [
              8.4027132,
              46.4931467
            ],
            [
              8.3919257,
              46.4937489
            ],
            [
              8.393675,
              46.4837122
            ],
            [
              8.3858031,
              46.4754807
            ],
            [
              8.391051,
              46.4700593
            ],
            [
              8.3939666,
              46.4684529
            ],
            [
              8.3869693,
              46.4660431
            ],
            [
              8.3863862,
              46.4626291
            ],
            [
              8.3834706,
              46.4602191
            ],
            [
              8.3860946,
              46.4517832
            ],
            [
              8.3823044,
              46.4499753
            ],
            [
              8.3788058,
              46.4499753
            ],
            [
              8.3753071,
              46.4531893
            ],
            [
              8.3548984,
              46.4461585
            ],
            [
              8.3406122,
              46.4339028
            ],
            [
              8.3233602,
              46.4242495
            ],
            [
              8.3108234,
              46.4234456
            ],
            [
              8.3073247,
              46.427264
            ],
            [
              8.2904146,
              46.4081693
            ],
            [
              8.3044092,
              46.401937
            ],
            [
              8.3111149,
              46.4045507
            ],
            [
              8.316946,
              46.3959051
            ],
            [
              8.3134473,
              46.3896714
            ],
            [
              8.31957,
              46.3860514
            ],
            [
              8.3125727,
              46.3782075
            ],
            [
              8.2837089,
              46.3639246
            ],
            [
              8.2735045,
              46.3673448
            ],
            [
              8.2595099,
              46.3609066
            ],
            [
              8.2647579,
              46.3512479
            ],
            [
              8.2638832,
              46.3456129
            ],
            [
              8.2609676,
              46.3444053
            ],
            [
              8.2557197,
              46.3476255
            ],
            [
              8.2510548,
              46.3456129
            ],
            [
              8.2493055,
              46.3399773
            ],
            [
              8.2341447,
              46.3403799
            ],
            [
              8.2218994,
              46.3327307
            ],
            [
              8.2230657,
              46.3270937
            ],
            [
              8.2149021,
              46.319644
            ],
            [
              8.2099457,
              46.3085682
            ],
            [
              8.2000329,
              46.301116
            ],
            [
              8.195368,
              46.3043387
            ],
            [
              8.1612417,
              46.2956771
            ],
            [
              8.1390836,
              46.3023244
            ],
            [
              8.0784404,
              46.2602113
            ],
            [
              8.1103194,
              46.2484381
            ],
            [
              8.1141096,
              46.2369446
            ],
            [
              8.1184829,
              46.2371463
            ],
            [
              8.1260633,
              46.2296843
            ],
            [
              8.1371423,
              46.2274657
            ],
            [
              8.1432649,
              46.2115294
            ],
            [
              8.1505538,
              46.2044675
            ],
            [
              8.1531778,
              46.1923594
            ],
            [
              8.165423,
              46.1814597
            ],
            [
              8.1642579,
              46.1766156
            ],
            [
              8.1490971,
              46.1610684
            ],
            [
              8.153762,
              46.1481428
            ],
            [
              8.1409336,
              46.1360222
            ],
            [
              8.1248981,
              46.1364263
            ],
            [
              8.1141106,
              46.1285465
            ],
            [
              8.1129444,
              46.1160174
            ],
            [
              8.1006992,
              46.1105603
            ],
            [
              8.0327671,
              46.100251
            ],
            [
              8.0286855,
              46.0798286
            ],
            [
              8.0213966,
              46.0678953
            ],
            [
              8.0339335,
              46.0438185
            ],
            [
              8.0129416,
              46.0298532
            ],
            [
              8.0184811,
              46.0241852
            ],
            [
              8.0109007,
              46.0201362
            ],
            [
              8.0132331,
              46.0132522
            ],
            [
              7.9998217,
              46.0122398
            ],
            [
              7.9896173,
              45.9966462
            ],
            [
              7.9776636,
              45.9998868
            ],
            [
              7.9088339,
              45.9960971
            ],
            [
              7.8925069,
              45.9788781
            ],
            [
              7.8750137,
              45.9732048
            ],
            [
              7.8825941,
              45.9650991
            ],
            [
              7.8747221,
              45.9571949
            ],
            [
              7.8796785,
              45.9541545
            ],
            [
              7.876763,
              45.9494923
            ],
            [
              7.8706403,
              45.9472623
            ],
            [
              7.868308,
              45.9363141
            ],
            [
              7.8770546,
              45.9265806
            ],
            [
              7.8729729,
              45.919685
            ],
            [
              7.8671418,
              45.9198878
            ],
            [
              7.8636432,
              45.9178596
            ],
            [
              7.8601445,
              45.9186709
            ],
            [
              7.8586868,
              45.9221188
            ],
            [
              7.8350709,
              45.9229301
            ],
            [
              7.8202665,
              45.927805
            ],
            [
              7.7981084,
              45.9182728
            ],
            [
              7.7695362,
              45.9367272
            ],
            [
              7.7473781,
              45.941796
            ],
            [
              7.7357999,
              45.9243281
            ],
            [
              7.720056,
              45.9251393
            ],
            [
              7.7081023,
              45.9352786
            ],
            [
              7.7083939,
              45.9498759
            ],
            [
              7.6961486,
              45.955957
            ],
            [
              7.6798216,
              45.9583892
            ],
            [
              7.6751567,
              45.9666986
            ],
            [
              7.6661186,
              45.9756145
            ],
            [
              7.6559902,
              45.977423
            ],
            [
              7.6335405,
              45.9705338
            ],
            [
              7.6078841,
              45.9709389
            ],
            [
              7.5845598,
              45.9721548
            ],
            [
              7.5763963,
              45.9873501
            ],
            [
              7.5472409,
              45.9849191
            ],
            [
              7.5402437,
              45.9735732
            ],
            [
              7.5469494,
              45.9604008
            ],
            [
              7.5364535,
              45.9555364
            ],
            [
              7.5220554,
              45.9583078
            ],
            [
              7.5176821,
              45.9629693
            ],
            [
              7.5080608,
              45.9579024
            ],
            [
              7.4993142,
              45.9619559
            ],
            [
              7.4952325,
              45.9572943
            ],
            [
              7.4934832,
              45.9554701
            ],
            [
              7.4882352,
              45.9560782
            ],
            [
              7.4710335,
              45.9477672
            ],
            [
              7.4754068,
              45.9356026
            ],
            [
              7.4692842,
              45.9333722
            ],
            [
              7.4599545,
              45.9356026
            ],
            [
              7.4447937,
              45.9309388
            ],
            [
              7.4319654,
              45.9183648
            ],
            [
              7.4211779,
              45.9143081
            ],
            [
              7.416513,
              45.9106568
            ],
            [
              7.4098073,
              45.908831
            ],
            [
              7.4025185,
              45.9108596
            ],
            [
              7.3978536,
              45.9086282
            ],
            [
              7.3847337,
              45.896455
            ],
            [
              7.3631587,
              45.9037592
            ],
            [
              7.356453,
              45.9110625
            ],
            [
              7.3417408,
              45.9147137
            ],
            [
              7.3251222,
              45.9092367
            ],
            [
              7.3201658,
              45.9108596
            ],
            [
              7.316084,
              45.9169449
            ],
            [
              7.2939259,
              45.9207986
            ],
            [
              7.2848878,
              45.9169449
            ],
            [
              7.2778905,
              45.9013245
            ],
            [
              7.2682692,
              45.8970636
            ],
            [
              7.2580648,
              45.8887438
            ],
            [
              7.2534,
              45.8879321
            ],
            [
              7.250776,
              45.8936141
            ],
            [
              7.2394054,
              45.8895556
            ],
            [
              7.2283263,
              45.8919907
            ],
            [
              7.2271601,
              45.8895556
            ],
            [
              7.2230784,
              45.891382
            ],
            [
              7.2184135,
              45.8885409
            ],
            [
              7.2160811,
              45.8838731
            ],
            [
              7.1977261,
              45.8723459
            ],
            [
              7.2006417,
              45.8630072
            ],
            [
              7.1901457,
              45.8577282
            ],
            [
              7.1770258,
              45.8630072
            ],
            [
              7.1598241,
              45.8727519
            ],
            [
              7.1668214,
              45.8768116
            ],
            [
              7.1551593,
              45.8800592
            ],
            [
              7.1347505,
              45.8717369
            ],
            [
              7.1152164,
              45.8593525
            ],
            [
              7.107636,
              45.8591495
            ],
            [
              7.1006387,
              45.8603678
            ],
            [
              7.0924752,
              45.8735638
            ],
            [
              7.0968485,
              45.8770146
            ],
            [
              7.0796468,
              45.8855391
            ],
            [
              7.074982,
              45.8906126
            ],
            [
              7.0773144,
              45.8954827
            ],
            [
              7.0639029,
              45.9009611
            ],
            [
              7.0656523,
              45.9104962
            ],
            [
              7.0615705,
              45.9147561
            ],
            [
              7.0426195,
              45.9246944
            ],
            [
              7.0351098,
              45.9412811
            ],
            [
              7.0367632,
              45.9564564
            ],
            [
              7.0179139,
              45.9619736
            ],
            [
              7.0079932,
              45.9702485
            ],
            [
              7.0099773,
              45.9739258
            ],
            [
              7.0228742,
              45.9780625
            ],
            [
              7.0232049,
              45.9817393
            ],
            [
              7.0119614,
              45.9879434
            ],
            [
              7.0109694,
              45.9936873
            ],
            [
              7.0089852,
              45.9978225
            ],
            [
              7.0043556,
              46.0019574
            ],
            [
              7.0000566,
              45.9996603
            ],
            [
              6.9851755,
              46.0051732
            ],
            [
              6.9802152,
              46.0207903
            ],
            [
              6.9702674,
              46.0258255
            ],
            [
              6.9663836,
              46.0314497
            ],
            [
              6.9629437,
              46.0303711
            ],
            [
              6.950142,
              46.0515158
            ],
            [
              6.9444827,
              46.0508997
            ],
            [
              6.9347177,
              46.0562134
            ],
            [
              6.9381576,
              46.0639134
            ],
            [
              6.9329422,
              46.0659152
            ],
            [
              6.9289474,
              46.0647603
            ],
            [
              6.9250636,
              46.0651453
            ],
            [
              6.9081967,
              46.0500526
            ],
            [
              6.8943436,
              46.0480389
            ],
            [
              6.8916805,
              46.0453433
            ],
            [
              6.8914585,
              46.0418002
            ],
            [
              6.8881295,
              46.0421853
            ],
            [
              6.8846896,
              46.0451122
            ],
            [
              6.883358,
              46.044188
            ],
            [
              6.8724833,
              46.0511965
            ],
            [
              6.879918,
              46.0693684
            ],
            [
              6.8921243,
              46.0739105
            ],
            [
              6.8884498,
              46.07945
            ],
            [
              6.8916678,
              46.0854536
            ],
            [
              6.8819028,
              46.0951503
            ],
            [
              6.895639,
              46.1086202
            ],
            [
              6.8936416,
              46.1100819
            ],
            [
              6.8935307,
              46.1146206
            ],
            [
              6.8999667,
              46.1242352
            ],
            [
              6.8971926,
              46.1243891
            ],
            [
              6.89575,
              46.12362
            ],
            [
              6.8908675,
              46.1254658
            ],
            [
              6.882434,
              46.122697
            ],
            [
              6.879327,
              46.1236969
            ],
            [
              6.8717813,
              46.1260811
            ],
            [
              6.8592114,
              46.1257124
            ],
            [
              6.8421226,
              46.1289425
            ],
            [
              6.8419007,
              46.1325568
            ],
            [
              6.8184868,
              46.1314033
            ],
            [
              6.8164894,
              46.1294039
            ],
            [
              6.814603,
              46.1294808
            ],
            [
              6.8133824,
              46.1311726
            ],
            [
              6.8067244,
              46.1363247
            ],
            [
              6.7988458,
              46.1356327
            ],
            [
              6.7908826,
              46.1548766
            ],
            [
              6.7919923,
              46.1633314
            ],
            [
              6.8053403,
              46.1728965
            ],
            [
              6.80645,
              46.1781984
            ],
            [
              6.8126641,
              46.1811181
            ],
            [
              6.8036031,
              46.2040503
            ],
            [
              6.8099282,
              46.2124975
            ],
            [
              6.8111488,
              46.2148779
            ],
            [
              6.813812,
              46.2154154
            ],
            [
              6.8169191,
              46.2204828
            ],
            [
              6.8218016,
              46.2228628
            ],
            [
              6.82047,
              46.2312153
            ],
            [
              6.8275718,
              46.2344392
            ],
            [
              6.830346,
              46.2339787
            ],
            [
              6.8372259,
              46.2405794
            ],
            [
              6.8392233,
              46.248714
            ],
            [
              6.8432764,
              46.2486139
            ],
            [
              6.8518208,
              46.252604
            ],
            [
              6.8549279,
              46.2552896
            ],
            [
              6.8551498,
              46.2599697
            ],
            [
              6.8606981,
              46.266107
            ],
            [
              6.8586363,
              46.2739063
            ],
            [
              6.8652942,
              46.2801954
            ],
            [
              6.8622981,
              46.2852569
            ],
            [
              6.8598569,
              46.2864839
            ],
            [
              6.8590801,
              46.2905479
            ],
            [
              6.8545305,
              46.2926182
            ],
            [
              6.8517564,
              46.2922348
            ],
            [
              6.8505357,
              46.2902412
            ],
            [
              6.84643,
              46.2898578
            ],
            [
              6.8435449,
              46.2943817
            ],
            [
              6.8396554,
              46.2949103
            ],
            [
              6.8351057,
              46.2981304
            ],
            [
              6.8345509,
              46.2999704
            ],
            [
              6.8295574,
              46.3003537
            ],
            [
              6.82756,
              46.3024236
            ],
            [
              6.8305561,
              46.3057966
            ],
            [
              6.8242311,
              46.3125419
            ],
            [
              6.8232324,
              46.3125419
            ],
            [
              6.8216788,
              46.3134617
            ],
            [
              6.8196814,
              46.3156077
            ],
            [
              6.8161305,
              46.3162209
            ],
            [
              6.8060045,
              46.3208009
            ],
            [
              6.8002343,
              46.3200345
            ],
            [
              6.7971272,
              46.3268548
            ],
            [
              6.7993465,
              46.328847
            ],
            [
              6.7966833,
              46.3315288
            ],
            [
              6.7965724,
              46.3331378
            ],
            [
              6.7866964,
              46.3320651
            ],
            [
              6.7851428,
              46.3330612
            ],
            [
              6.7851152,
              46.337322
            ],
            [
              6.7751282,
              46.3471275
            ],
            [
              6.771154,
              46.3543349
            ],
            [
              6.7707101,
              46.360768
            ],
            [
              6.781141,
              46.3665877
            ],
            [
              6.7863564,
              46.3665877
            ],
            [
              6.7916828,
              46.366894
            ],
            [
              6.7957885,
              46.3713349
            ],
            [
              6.8004223,
              46.3762185
            ],
            [
              6.8050828,
              46.3779028
            ],
            [
              6.8059706,
              46.381118
            ],
            [
              6.8061925,
              46.383491
            ],
            [
              6.8031964,
              46.38418
            ],
            [
              6.8018648,
              46.3864763
            ],
            [
              6.8021977,
              46.3907626
            ],
            [
              6.8035293,
              46.3934413
            ],
            [
              6.8049719,
              46.3939005
            ],
            [
              6.8076498,
              46.3988952
            ],
            [
              6.8091076,
              46.4020337
            ]
          ]
        ]
      }
    }
  ]
}
