{"type":"FeatureCollection","features":[{"type":"Feature","properties":{"@circle":{"type":"Mercator","center":[-1.2687697,50.3512583]}},"geometry":{"type":"Polygon","coordinates":[[[-0.8104,50.351258],[-0.811305,50.36962],[-0.814015,50.387901],[-0.818519,50.406031],[-0.824801,50.423938],[-0.832834,50.441552],[-0.842589,50.458804],[-0.854025,50.475625],[-0.867097,50.491951],[-0.881756,50.507716],[-0.897941,50.52286],[-0.91559,50.537324],[-0.934633,50.55105],[-0.954994,50.563986],[-0.976594,50.57608],[-0.999347,50.587287],[-1.023163,50.597562],[-1.047949,50.606866],[-1.073605,50.615162],[-1.100033,50.622417],[-1.127126,50.628605],[-1.154778,50.633701],[-1.18288,50.637685],[-1.211321,50.640542],[-1.239988,50.642261],[-1.26877,50.642834],[-1.297551,50.642261],[-1.326219,50.640542],[-1.35466,50.637685],[-1.382762,50.633701],[-1.410414,50.628605],[-1.437507,50.622417],[-1.463934,50.615162],[-1.489591,50.606866],[-1.514376,50.597562],[-1.538193,50.587287],[-1.560945,50.57608],[-1.582545,50.563986],[-1.602907,50.55105],[-1.621949,50.537324],[-1.639598,50.52286],[-1.655784,50.507716],[-1.670442,50.491951],[-1.683515,50.475625],[-1.694951,50.458804],[-1.704705,50.441552],[-1.712739,50.423938],[-1.71902,50.406031],[-1.723525,50.387901],[-1.726235,50.36962],[-1.727139,50.351258],[-1.726235,50.33289],[-1.723525,50.314587],[-1.71902,50.296422],[-1.712739,50.278467],[-1.704705,50.260792],[-1.694951,50.243469],[-1.683515,50.226565],[-1.670442,50.210148],[-1.655784,50.194283],[-1.639598,50.179034],[-1.621949,50.164461],[-1.602907,50.150622],[-1.582545,50.137574],[-1.560945,50.125367],[-1.538193,50.11405],[-1.514376,50.10367],[-1.489591,50.094267],[-1.463934,50.08588],[-1.437507,50.078542],[-1.410414,50.072282],[-1.382762,50.067125],[-1.35466,50.063093],[-1.326219,50.060201],[-1.297551,50.058462],[-1.26877,50.057881],[-1.239988,50.058462],[-1.211321,50.060201],[-1.18288,50.063093],[-1.154778,50.067125],[-1.127126,50.072282],[-1.100033,50.078542],[-1.073605,50.08588],[-1.047949,50.094267],[-1.023163,50.10367],[-0.999347,50.11405],[-0.976594,50.125367],[-0.954994,50.137574],[-0.934633,50.150622],[-0.91559,50.164461],[-0.897941,50.179034],[-0.881756,50.194283],[-0.867097,50.210148],[-0.854025,50.226565],[-0.842589,50.243469],[-0.832834,50.260792],[-0.824801,50.278467],[-0.818519,50.296422],[-0.814015,50.314587],[-0.8104,50.351258]]]}}]}{"type":"FeatureCollection","features":[{"type":"Feature","properties":{"@circle":{"type":"Mercator","center":[-1.2847247,50.499587]}},"geometry":{"type":"Polygon","coordinates":[[[-0.973843,50.499587],[-0.974456,50.512002],[-0.976294,50.524365],[-0.979349,50.536627],[-0.98361,50.548739],[-0.989058,50.560655],[-0.995674,50.572326],[-1.00343,50.583709],[-1.012297,50.594756],[-1.022238,50.605426],[-1.033216,50.615677],[-1.045186,50.625468],[-1.058101,50.63476],[-1.071911,50.643518],[-1.086561,50.651708],[-1.101993,50.659297],[-1.118146,50.666255],[-1.134956,50.672556],[-1.152358,50.678175],[-1.170281,50.68309],[-1.188657,50.687281],[-1.207411,50.690733],[-1.226471,50.693432],[-1.245761,50.695367],[-1.265204,50.696532],[-1.284725,50.69692],[-1.304245,50.696532],[-1.323689,50.695367],[-1.342978,50.693432],[-1.362038,50.690733],[-1.380793,50.687281],[-1.399168,50.68309],[-1.417092,50.678175],[-1.434493,50.672556],[-1.451304,50.666255],[-1.467457,50.659297],[-1.482888,50.651708],[-1.497538,50.643518],[-1.511348,50.63476],[-1.524263,50.625468],[-1.536233,50.615677],[-1.547211,50.605426],[-1.557153,50.594756],[-1.566019,50.583709],[-1.573775,50.572326],[-1.580391,50.560655],[-1.58584,50.548739],[-1.5901,50.536627],[-1.593155,50.524365],[-1.594993,50.512002],[-1.595607,50.499587],[-1.594993,50.487169],[-1.593155,50.474796],[-1.5901,50.462518],[-1.58584,50.450384],[-1.580391,50.43844],[-1.573775,50.426735],[-1.566019,50.415315],[-1.557153,50.404226],[-1.547211,50.39351],[-1.536233,50.383211],[-1.524263,50.37337],[-1.511348,50.364026],[-1.497538,50.355216],[-1.482888,50.346974],[-1.467457,50.339335],[-1.451304,50.332328],[-1.434493,50.325982],[-1.417092,50.320321],[-1.399168,50.315369],[-1.380793,50.311144],[-1.362038,50.307664],[-1.342978,50.304943],[-1.323689,50.302992],[-1.304245,50.301818],[-1.284725,50.301426],[-1.265204,50.301818],[-1.245761,50.302992],[-1.226471,50.304943],[-1.207411,50.307664],[-1.188657,50.311144],[-1.170281,50.315369],[-1.152358,50.320321],[-1.134956,50.325982],[-1.118146,50.332328],[-1.101993,50.339335],[-1.086561,50.346974],[-1.071911,50.355216],[-1.058101,50.364026],[-1.045186,50.37337],[-1.033216,50.383211],[-1.022238,50.39351],[-1.012297,50.404226],[-1.00343,50.415315],[-0.995674,50.426735],[-0.989058,50.43844],[-0.98361,50.450384],[-0.979349,50.462518],[-0.976294,50.474796],[-0.973843,50.499587]]]}}]}
