{
  "type": "FeatureCollection",
  "features": [
    {
      "type": "Feature",
      "properties": {
        "@circle": {
          "type": "Mercator",
          "center": [
            40.1358671,
            -5.853479
          ]
        }
      },
      "geometry": {
        "type": "Polygon",
        "coordinates": [
          [
            [
              41.24311112637841,
              -5.853479011869826
            ],
            [
              41.24092623313366,
              -5.784312822476618
            ],
            [
              41.23438017617489,
              -5.715411191173852
            ],
            [
              41.223498789798285,
              -5.647046287804224
            ],
            [
              41.20832501786467,
              -5.579488255173378
            ],
            [
              41.188918744319594,
              -5.5130041358424915
            ],
            [
              41.165356556858875,
              -5.447856810024544
            ],
            [
              41.13773144467189,
              -5.3843039489603965
            ],
            [
              41.10615243145571,
              -5.322596988096649
            ],
            [
              41.07074414514843,
              -5.262980124309963
            ],
            [
              41.0316463260796,
              -5.205689341324733
            ],
            [
              40.98901327547899,
              -5.1509514673532415
            ],
            [
              40.94301324652012,
              -5.098983268849933
            ],
            [
              40.89382778030188,
              -5.049990584116084
            ],
            [
              40.84165098938875,
              -5.0041675003193
            ],
            [
              40.786688791737134,
              -4.9616955773045355
            ],
            [
              40.729158098031334,
              -4.9227431213720845
            ],
            [
              40.66928595563613,
              -4.887464511983796
            ],
            [
              40.60730865254457,
              -4.855999584133736
            ],
            [
              40.543470784857234,
              -4.828473068884477
            ],
            [
              40.478024291473126,
              -4.80499409432699
            ],
            [
              40.411227459801985,
              -4.785655748971229
            ],
            [
              40.34334390642183,
              -4.77053470931828
            ],
            [
              40.27464153670481,
              -4.759690933103021
            ],
            [
              40.20539148751708,
              -4.7531674194307
            ],
            [
              40.135867057165456,
              -4.750990036762053
            ],
            [
              40.06634262681382,
              -4.7531674194307
            ],
            [
              39.9970925776261,
              -4.759690933103021
            ],
            [
              39.92839020790908,
              -4.77053470931828
            ],
            [
              39.86050665452893,
              -4.785655748971229
            ],
            [
              39.793709822857785,
              -4.80499409432699
            ],
            [
              39.72826332947368,
              -4.828473068884477
            ],
            [
              39.66442546178634,
              -4.855999584133736
            ],
            [
              39.602448158694784,
              -4.887464511983796
            ],
            [
              39.54257601629958,
              -4.9227431213720845
            ],
            [
              39.48504532259377,
              -4.9616955773045355
            ],
            [
              39.43008312494216,
              -5.0041675003193
            ],
            [
              39.37790633402903,
              -5.049990584116084
            ],
            [
              39.328720867810794,
              -5.098983268849933
            ],
            [
              39.28272083885192,
              -5.1509514673532415
            ],
            [
              39.24008778825131,
              -5.205689341324733
            ],
            [
              39.20098996918247,
              -5.262980124309963
            ],
            [
              39.1655816828752,
              -5.322596988096649
            ],
            [
              39.134002669659026,
              -5.384303948960384
            ],
            [
              39.10637755747203,
              -5.447856810024544
            ],
            [
              39.08281537001132,
              -5.5130041358424915
            ],
            [
              39.063409096466245,
              -5.579488255173378
            ],
            [
              39.04823532453262,
              -5.647046287804224
            ],
            [
              39.037353938156016,
              -5.715411191173852
            ],
            [
              39.03080788119725,
              -5.784312822476618
            ],
            [
              39.0286229879525,
              -5.853479011869826
            ],
            [
              39.03080788119725,
              -5.922636642375348
            ],
            [
              39.037353938156016,
              -5.991512732055417
            ],
            [
              39.04823532453262,
              -6.059835514055091
            ],
            [
              39.063409096466245,
              -6.12733551013705
            ],
            [
              39.08281537001132,
              -6.19374659339012
            ],
            [
              39.10637755747203,
              -6.258807035869031
            ],
            [
              39.134002669659026,
              -6.322260537018217
            ],
            [
              39.1655816828752,
              -6.383857228847176
            ],
            [
              39.20098996918247,
              -6.443354653955552
            ],
            [
              39.24008778825131,
              -6.500518712653481
            ],
            [
              39.28272083885192,
              -6.555124575583053
            ],
            [
              39.328720867810794,
              -6.606957558419679
            ],
            [
              39.37790633402903,
              -6.655813955416161
            ],
            [
              39.43008312494216,
              -6.701501828743861
            ],
            [
              39.48504532259377,
              -6.743841750785324
            ],
            [
              39.54257601629958,
              -6.782667496737437
            ],
            [
              39.602448158694784,
              -6.817826685093781
            ],
            [
              39.66442546178634,
              -6.84918136378603
            ],
            [
              39.72826332947368,
              -6.876608539978978
            ],
            [
              39.793709822857785,
              -6.900000651727132
            ],
            [
              39.86050665452893,
              -6.919265979915904
            ],
            [
              39.92839020790908,
              -6.934328999123599
            ],
            [
              39.9970925776261,
              -6.945130666253568
            ],
            [
              40.06634262681382,
              -6.951628645996966
            ],
            [
              40.135867057165456,
              -6.953797472397343
            ],
            [
              40.20539148751708,
              -6.951628645996966
            ],
            [
              40.27464153670481,
              -6.945130666253568
            ],
            [
              40.34334390642182,
              -6.934328999123599
            ],
            [
              40.411227459801985,
              -6.919265979915904
            ],
            [
              40.478024291473126,
              -6.900000651727132
            ],
            [
              40.543470784857234,
              -6.876608539978978
            ],
            [
              40.60730865254457,
              -6.84918136378603
            ],
            [
              40.66928595563613,
              -6.817826685093781
            ],
            [
              40.729158098031334,
              -6.782667496737437
            ],
            [
              40.786688791737134,
              -6.743841750785324
            ],
            [
              40.84165098938875,
              -6.701501828743861
            ],
            [
              40.89382778030188,
              -6.655813955416161
            ],
            [
              40.94301324652012,
              -6.606957558419679
            ],
            [
              40.98901327547899,
              -6.555124575583053
            ],
            [
              41.0316463260796,
              -6.500518712653481
            ],
            [
              41.07074414514843,
              -6.443354653955539
            ],
            [
              41.10615243145571,
              -6.383857228847176
            ],
            [
              41.13773144467189,
              -6.322260537018217
            ],
            [
              41.165356556858875,
              -6.258807035869031
            ],
            [
              41.188918744319594,
              -6.19374659339012
            ],
            [
              41.20832501786467,
              -6.12733551013705
            ],
            [
              41.223498789798285,
              -6.059835514055091
            ],
            [
              41.23438017617489,
              -5.991512732055417
            ],
            [
              41.24311112637841,
              -5.853479011869826
            ]
          ]
        ]
      }
    }
  ]
}
