{"type":"FeatureCollection","features":[{"type":"Feature","properties":{"@circle":{"type":"Mercator","center":[142.3580193,-10.0172627]}},"geometry":{"type":"Polygon","coordinates":[[[142.986183,-10.017263],[142.984944,-9.978419],[142.98123,-9.939724],[142.975057,-9.90133],[142.966448,-9.86339],[142.955439,-9.826053],[142.942071,-9.789466],[142.926399,-9.753775],[142.908484,-9.71912],[142.888396,-9.685639],[142.866215,-9.653464],[142.842028,-9.622723],[142.815931,-9.593537],[142.788027,-9.566023],[142.758426,-9.540288],[142.727245,-9.516435],[142.694606,-9.494558],[142.66064,-9.474745],[142.625479,-9.457073],[142.589262,-9.441614],[142.552133,-9.428427],[142.514237,-9.417566],[142.475726,-9.409074],[142.436749,-9.402983],[142.397462,-9.399319],[142.358019,-9.398097],[142.318577,-9.399319],[142.279289,-9.402983],[142.240313,-9.409074],[142.201801,-9.417566],[142.163906,-9.428427],[142.126777,-9.441614],[142.09056,-9.457073],[142.055399,-9.474745],[142.021432,-9.494558],[141.988794,-9.516435],[141.957612,-9.540288],[141.928011,-9.566023],[141.900107,-9.593537],[141.874011,-9.622723],[141.849824,-9.653464],[141.827643,-9.685639],[141.807555,-9.71912],[141.789639,-9.753775],[141.773967,-9.789466],[141.7606,-9.826053],[141.74959,-9.86339],[141.740982,-9.90133],[141.734809,-9.939724],[141.731095,-9.978419],[141.729855,-10.017263],[141.731095,-10.056102],[141.734809,-10.094783],[141.740982,-10.133154],[141.74959,-10.171063],[141.7606,-10.20836],[141.773967,-10.2449],[141.789639,-10.280537],[141.807555,-10.315132],[141.827643,-10.348548],[141.849824,-10.380653],[141.874011,-10.411323],[141.900107,-10.440435],[141.928011,-10.467876],[141.957612,-10.493537],[141.988794,-10.517319],[142.021432,-10.539126],[142.055399,-10.558875],[142.09056,-10.576486],[142.126777,-10.591892],[142.163906,-10.605031],[142.201801,-10.615853],[142.240313,-10.624314],[142.279289,-10.630381],[142.318577,-10.634031],[142.358019,-10.635249],[142.397462,-10.634031],[142.436749,-10.630381],[142.475726,-10.624314],[142.514237,-10.615853],[142.552133,-10.605031],[142.589262,-10.591892],[142.625479,-10.576486],[142.66064,-10.558875],[142.694606,-10.539126],[142.727245,-10.517319],[142.758426,-10.493537],[142.788027,-10.467876],[142.815931,-10.440435],[142.842028,-10.411323],[142.866215,-10.380653],[142.888396,-10.348548],[142.908484,-10.315132],[142.926399,-10.280537],[142.942071,-10.2449],[142.955439,-10.20836],[142.966448,-10.171063],[142.975057,-10.133154],[142.98123,-10.094783],[142.986183,-10.017263]]]}}]}